{"type":"FeatureCollection","features":[{"type":"Feature","properties":{"id":1,"Name":"1号","name":"1号","source_file":"yangshangdiaoqiao.shp","source_crs":"EPSG:3857","target_crs":"BD09"},"geometry":{"type":"Point","coordinates":[122.02196063899973,30.659632896309517]}},{"type":"Feature","properties":{"id":2,"Name":"2号","name":"2号","source_file":"yangshangdiaoqiao.shp","source_crs":"EPSG:3857","target_crs":"BD09"},"geometry":{"type":"Point","coordinates":[122.02239414173648,30.659521688074687]}},{"type":"Feature","properties":{"id":3,"Name":"3号","name":"3号","source_file":"yangshangdiaoqiao.shp","source_crs":"EPSG:3857","target_crs":"BD09"},"geometry":{"type":"Point","coordinates":[122.02270178470579,30.6594559438264]}},{"type":"Feature","properties":{"id":4,"Name":"4号","name":"4号","source_file":"yangshangdiaoqiao.shp","source_crs":"EPSG:3857","target_crs":"BD09"},"geometry":{"type":"Point","coordinates":[122.02301642492866,30.65939031551389]}},{"type":"Feature","properties":{"id":5,"Name":"5号","name":"5号","source_file":"yangshangdiaoqiao.shp","source_crs":"EPSG:3857","target_crs":"BD09"},"geometry":{"type":"Point","coordinates":[122.02630322723668,30.65863221463053]}},{"type":"Feature","properties":{"id":6,"Name":"6号","name":"6号","source_file":"yangshangdiaoqiao.shp","source_crs":"EPSG:3857","target_crs":"BD09"},"geometry":{"type":"Point","coordinates":[122.02653406527418,30.658552407762354]}},{"type":"Feature","properties":{"id":7,"Name":"7号","name":"7号","source_file":"yangshangdiaoqiao.shp","source_crs":"EPSG:3857","target_crs":"BD09"},"geometry":{"type":"Point","coordinates":[122.026841829396,30.65848009142517]}},{"type":"Feature","properties":{"id":8,"Name":"8号","name":"8号","source_file":"yangshangdiaoqiao.shp","source_crs":"EPSG:3857","target_crs":"BD09"},"geometry":{"type":"Point","coordinates":[122.02903957751164,30.657933929947795]}},{"type":"Feature","properties":{"id":9,"Name":"9号","name":"9号","source_file":"yangshangdiaoqiao.shp","source_crs":"EPSG:3857","target_crs":"BD09"},"geometry":{"type":"Point","coordinates":[122.02929659817461,30.657795830770006]}},{"type":"Feature","properties":{"id":10,"Name":"10号","name":"10号","source_file":"yangshangdiaoqiao.shp","source_crs":"EPSG:3857","target_crs":"BD09"},"geometry":{"type":"Point","coordinates":[122.02961987497909,30.657723095299623]}},{"type":"Feature","properties":{"id":11,"Name":"11号","name":"11号","source_file":"yangshangdiaoqiao.shp","source_crs":"EPSG:3857","target_crs":"BD09"},"geometry":{"type":"Point","coordinates":[122.0301752895283,30.657590109278573]}},{"type":"Feature","properties":{"id":12,"Name":"12号","name":"12号","source_file":"yangshangdiaoqiao.shp","source_crs":"EPSG:3857","target_crs":"BD09"},"geometry":{"type":"Point","coordinates":[122.03059810283628,30.65748320154983]}},{"type":"Feature","properties":{"id":13,"Name":"13号","name":"13号","source_file":"yangshangdiaoqiao.shp","source_crs":"EPSG:3857","target_crs":"BD09"},"geometry":{"type":"Point","coordinates":[122.03110384959952,30.65736328322478]}},{"type":"Feature","properties":{"id":14,"Name":"14号","name":"14号","source_file":"yangshangdiaoqiao.shp","source_crs":"EPSG:3857","target_crs":"BD09"},"geometry":{"type":"Point","coordinates":[122.03137748019313,30.657282187878977]}},{"type":"Feature","properties":{"id":15,"Name":"15号","name":"15号","source_file":"yangshangdiaoqiao.shp","source_crs":"EPSG:3857","target_crs":"BD09"},"geometry":{"type":"Point","coordinates":[122.03385714298341,30.656735574961772]}},{"type":"Feature","properties":{"id":16,"Name":"16号","name":"16号","source_file":"yangshangdiaoqiao.shp","source_crs":"EPSG:3857","target_crs":"BD09"},"geometry":{"type":"Point","coordinates":[122.03469502107676,30.65651912803628]}},{"type":"Feature","properties":{"id":17,"Name":"17号","name":"17号","source_file":"yangshangdiaoqiao.shp","source_crs":"EPSG:3857","target_crs":"BD09"},"geometry":{"type":"Point","coordinates":[122.03561600496776,30.656281767283666]}},{"type":"Feature","properties":{"id":18,"Name":"18号","name":"18号","source_file":"yangshangdiaoqiao.shp","source_crs":"EPSG:3857","target_crs":"BD09"},"geometry":{"type":"Point","coordinates":[122.03596451987376,30.656200636128407]}},{"type":"Feature","properties":{"id":19,"Name":"19号","name":"19号","source_file":"yangshangdiaoqiao.shp","source_crs":"EPSG:3857","target_crs":"BD09"},"geometry":{"type":"Point","coordinates":[122.03659520422033,30.656080062260127]}},{"type":"Feature","properties":{"id":20,"Name":"20号","name":"20号","source_file":"yangshangdiaoqiao.shp","source_crs":"EPSG:3857","target_crs":"BD09"},"geometry":{"type":"Point","coordinates":[122.03813911367159,30.65570532285137]}},{"type":"Feature","properties":{"id":21,"Name":"21号","name":"21号","source_file":"yangshangdiaoqiao.shp","source_crs":"EPSG:3857","target_crs":"BD09"},"geometry":{"type":"Point","coordinates":[122.03852101690252,30.655609464824213]}},{"type":"Feature","properties":{"id":22,"Name":"22号","name":"22号","source_file":"yangshangdiaoqiao.shp","source_crs":"EPSG:3857","target_crs":"BD09"},"geometry":{"type":"Point","coordinates":[122.03906902778742,30.655458035139013]}},{"type":"Feature","properties":{"id":23,"Name":"23号","name":"23号","source_file":"yangshangdiaoqiao.shp","source_crs":"EPSG:3857","target_crs":"BD09"},"geometry":{"type":"Point","coordinates":[122.04055557738465,30.65509346267332]}},{"type":"Feature","properties":{"id":24,"Name":"24号","name":"24号","source_file":"yangshangdiaoqiao.shp","source_crs":"EPSG:3857","target_crs":"BD09"},"geometry":{"type":"Point","coordinates":[122.04086290050549,30.655031789640862]}},{"type":"Feature","properties":{"id":25,"Name":"25号","name":"25号","source_file":"yangshangdiaoqiao.shp","source_crs":"EPSG:3857","target_crs":"BD09"},"geometry":{"type":"Point","coordinates":[122.04178501292729,30.65481766097692]}},{"type":"Feature","properties":{"id":26,"Name":"26号","name":"26号","source_file":"yangshangdiaoqiao.shp","source_crs":"EPSG:3857","target_crs":"BD09"},"geometry":{"type":"Point","coordinates":[122.04207580287455,30.65475549632485]}},{"type":"Feature","properties":{"id":27,"Name":"27号","name":"27号","source_file":"yangshangdiaoqiao.shp","source_crs":"EPSG:3857","target_crs":"BD09"},"geometry":{"type":"Point","coordinates":[122.0423749295642,30.65467902820031]}},{"type":"Feature","properties":{"id":28,"Name":"28号","name":"28号","source_file":"yangshangdiaoqiao.shp","source_crs":"EPSG:3857","target_crs":"BD09"},"geometry":{"type":"Point","coordinates":[122.04298156590419,30.654504460247164]}}]}