{"type":"FeatureCollection","features":[{"type":"Feature","properties":{"id":1,"ID_1":1,"Name":"第一个","source_file":"jizhuangxiangport.shp","source_crs":"EPSG:4326","target_crs":"BD09","feature_index":1,"feature_type":"container_yard"},"geometry":{"type":"Polygon","coordinates":[[[122.02364742105705,30.6629520558517],[122.02281762353745,30.66033006331038],[122.02243243106669,30.66041077229617],[122.02328970327099,30.66304234173342],[122.02328970327099,30.66304234173342],[122.02328970327099,30.66304234173342],[122.02364742105705,30.6629520558517]]]}},{"type":"Feature","properties":{"id":2,"ID_1":2,"Name":"第二个","source_file":"jizhuangxiangport.shp","source_crs":"EPSG:4326","target_crs":"BD09","feature_index":2,"feature_type":"container_yard"},"geometry":{"type":"Polygon","coordinates":[[[122.02370287432208,30.662482091450194],[122.02402621205196,30.66239399855095],[122.02346370776732,30.660770363639685],[122.02315414114592,30.660858679142144],[122.02370287432208,30.662482091450194]]]}},{"type":"Feature","properties":{"id":3,"ID_1":3,"Name":"第三个","source_file":"jizhuangxiangport.shp","source_crs":"EPSG:4326","target_crs":"BD09","feature_index":3,"feature_type":"container_yard"},"geometry":{"type":"Polygon","coordinates":[[[122.02407437283134,30.662377218326505],[122.0244045933711,30.662295144496728],[122.0237598117815,30.6603617157225],[122.023450254305,30.660432287492558],[122.02407437283134,30.662377218326505]]]}},{"type":"Feature","properties":{"id":4,"ID_1":4,"Name":"第四个集装箱","source_file":"jizhuangxiangport.shp","source_crs":"EPSG:4326","target_crs":"BD09","feature_index":4,"feature_type":"container_yard"},"geometry":{"type":"Polygon","coordinates":[[[122.02444588854074,30.662266363395823],[122.02474858549118,30.662207379871383],[122.02411065973594,30.660274182870523],[122.02380798153796,30.660333087900376],[122.02444588854074,30.662266363395823]]]}},{"type":"Feature","properties":{"id":5,"ID_1":5,"Name":"第五个集装箱码垛","source_file":"jizhuangxiangport.shp","source_crs":"EPSG:4326","target_crs":"BD09","feature_index":5,"feature_type":"container_yard"},"geometry":{"type":"Polygon","coordinates":[[[122.0248173516702,30.662226561895906],[122.02512695388394,30.662149890423247],[122.02447532152173,30.660133547453437],[122.02412446268671,30.66022113236496],[122.0248173516702,30.662226561895906]]]}},{"type":"Feature","properties":{"id":6,"ID_1":6,"Name":"第六个集装箱码垛","source_file":"jizhuangxiangport.shp","source_crs":"EPSG:4326","target_crs":"BD09","feature_index":6,"feature_type":"container_yard"},"geometry":{"type":"Polygon","coordinates":[[[122.0253814604547,30.662155031488716],[122.02567732226396,30.66207800423795],[122.02499129735187,30.660019640324197],[122.02464729500858,30.660113369722943],[122.0253814604547,30.662155031488716]]]}},{"type":"Feature","properties":{"id":7,"ID_1":7,"Name":"第七个集装箱码垛","source_file":"jizhuangxiangport.shp","source_crs":"EPSG:4326","target_crs":"BD09","feature_index":7,"feature_type":"container_yard"},"geometry":{"type":"Polygon","coordinates":[[[122.02573926454338,30.662043685518604],[122.0260282312161,30.66199610062665],[122.02539706697542,30.6600989635511],[122.02509433208333,30.6601817405481],[122.02573926454338,30.662043685518604]]]}},{"type":"Feature","properties":{"id":8,"ID_1":8,"Name":"第八个集装箱码垛","source_file":"jizhuangxiangport.shp","source_crs":"EPSG:4326","target_crs":"BD09","feature_index":8,"feature_type":"container_yard"},"geometry":{"type":"Polygon","coordinates":[[[122.02606953293788,30.6619672885451],[122.02637916954579,30.661896357516206],[122.02570679958598,30.65989183169834],[122.0254109446404,30.659962939000796],[122.02606953293788,30.6619672885451]]]}},{"type":"Feature","properties":{"id":9,"ID_1":9,"Name":"第九个集装箱码垛","source_file":"jizhuangxiangport.shp","source_crs":"EPSG:4326","target_crs":"BD09","feature_index":9,"feature_type":"container_yard"},"geometry":{"type":"Polygon","coordinates":[[[122.02653023081278,30.6622134031458],[122.0268949271472,30.66213753952026],[122.02607843276341,30.659709584642194],[122.02571377228968,30.659785298140584],[122.02653023081278,30.6622134031458]]]}},{"type":"Feature","properties":{"id":10,"ID_1":10,"Name":"第十个集装箱码垛","source_file":"jizhuangxiangport.shp","source_crs":"EPSG:4326","target_crs":"BD09","feature_index":10,"feature_type":"container_yard"},"geometry":{"type":"Polygon","coordinates":[[[122.02724552155435,30.66245245511943],[122.02752078849798,30.662392527277753],[122.02657389015856,30.65955339740014],[122.02622294793264,30.659653178348684],[122.02724552155435,30.66245245511943]]]}},{"type":"Feature","properties":{"id":11,"ID_1":11,"Name":"","source_file":"jizhuangxiangport.shp","source_crs":"EPSG:4326","target_crs":"BD09","feature_index":11,"feature_type":"container_yard"},"geometry":{"type":"Polygon","coordinates":[[[122.02758271684125,30.662387778425654],[122.02787864245613,30.662322260347256],[122.02695236028457,30.659460010545384],[122.02660829821399,30.659542217106498],[122.02758271684125,30.662387778425654]]]}},{"type":"Feature","properties":{"id":12,"ID_1":12,"Name":"","source_file":"jizhuangxiangport.shp","source_crs":"EPSG:4326","target_crs":"BD09","feature_index":12,"feature_type":"container_yard"},"geometry":{"type":"Polygon","coordinates":[[[122.02826402557604,30.6622642824984],[122.02734458673443,30.65939051408859],[122.02702801285129,30.659491104018223],[122.02791992079008,30.662328962797584],[122.02826402557604,30.6622642824984]]]}},{"type":"Feature","properties":{"id":13,"ID_1":13,"Name":"","source_file":"jizhuangxiangport.shp","source_crs":"EPSG:4326","target_crs":"BD09","feature_index":13,"feature_type":"container_yard"},"geometry":{"type":"Polygon","coordinates":[[[122.02833287868229,30.662218152431674],[122.02862883832552,30.66214657641334],[122.02769556448037,30.65930237189919],[122.02738587290028,30.659385377047773],[122.02833287868229,30.662218152431674]]]}},{"type":"Feature","properties":{"id":13,"ID_1":13,"Name":"","source_file":"jizhuangxiangport.shp","source_crs":"EPSG:4326","target_crs":"BD09","feature_index":14,"feature_type":"container_yard"},"geometry":{"type":"Polygon","coordinates":[[[122.02867015316565,30.662117704295206],[122.02900739970755,30.662064593696154],[122.02804653178619,30.65924378983029],[122.02776435895447,30.659315525334975],[122.02867015316565,30.662117704295206]]]}},{"type":"Feature","properties":{"id":14,"ID_1":14,"Name":"","source_file":"jizhuangxiangport.shp","source_crs":"EPSG:4326","target_crs":"BD09","feature_index":15,"feature_type":"container_yard"},"geometry":{"type":"Polygon","coordinates":[[[122.02906936172312,30.66203608539481],[122.02935843668574,30.661999805564907],[122.02842507005118,30.65915008683486],[122.02807408572033,30.65920874758534],[122.02906936172312,30.66203608539481]]]}},{"type":"Feature","properties":{"id":15,"ID_1":15,"Name":"","source_file":"jizhuangxiangport.shp","source_crs":"EPSG:4326","target_crs":"BD09","feature_index":16,"feature_type":"container_yard"},"geometry":{"type":"Polygon","coordinates":[[[122.02957867961676,30.661985954841388],[122.02988158906273,30.661896486587185],[122.0289480774183,30.659130043833063],[122.02861082085106,30.65920092233162],[122.02957867961676,30.661985954841388]]]}},{"type":"Feature","properties":{"id":16,"ID_1":16,"Name":"","source_file":"jizhuangxiangport.shp","source_crs":"EPSG:4326","target_crs":"BD09","feature_index":17,"feature_type":"container_yard"},"geometry":{"type":"Polygon","coordinates":[[[122.02992977210053,30.661891405742043],[122.03023268628883,30.661813718115965],[122.02931296933383,30.658952915192668],[122.02898255207192,30.659053627599295],[122.02992977210053,30.661891405742043]]]}},{"type":"Feature","properties":{"id":17,"ID_1":17,"Name":"","source_file":"jizhuangxiangport.shp","source_crs":"EPSG:4326","target_crs":"BD09","feature_index":18,"feature_type":"container_yard"},"geometry":{"type":"Polygon","coordinates":[[[122.0302808879737,30.661790847740303],[122.03063200611625,30.661707983156088],[122.02969158287262,30.658847058787273],[122.02932676386692,30.65891760451278],[122.0302808879737,30.661790847740303]]]}},{"type":"Feature","properties":{"id":18,"ID_1":18,"Name":"","source_file":"jizhuangxiangport.shp","source_crs":"EPSG:4326","target_crs":"BD09","feature_index":19,"feature_type":"container_yard"},"geometry":{"type":"Polygon","coordinates":[[[122.03070086069347,30.661685450506845],[122.03098314307577,30.661625032208768],[122.0300151403824,30.65875792524183],[122.02972601487625,30.658823962032308],[122.03070086069347,30.661685450506845]]]}},{"type":"Feature","properties":{"id":19,"ID_1":19,"Name":"","source_file":"jizhuangxiangport.shp","source_crs":"EPSG:4326","target_crs":"BD09","feature_index":20,"feature_type":"container_yard"},"geometry":{"type":"Polygon","coordinates":[[[122.03103136098049,30.661590284397207],[122.03133431531236,30.661524215064194],[122.03037997555835,30.658710916605568],[122.03008396196876,30.65876505236046],[122.03103136098049,30.661590284397207]]]}},{"type":"Feature","properties":{"id":20,"ID_1":20,"Name":"","source_file":"jizhuangxiangport.shp","source_crs":"EPSG:4326","target_crs":"BD09","feature_index":21,"feature_type":"container_yard"},"geometry":{"type":"Polygon","coordinates":[[[122.03138252513321,30.66150130708574],[122.03172681372284,30.66142398001589],[122.03073114006204,30.658574688331434],[122.03042136506852,30.658604954277475],[122.03138252513321,30.66150130708574]]]}},{"type":"Feature","properties":{"id":21,"ID_1":21,"Name":"","source_file":"jizhuangxiangport.shp","source_crs":"EPSG:4326","target_crs":"BD09","feature_index":22,"feature_type":"container_yard"},"geometry":{"type":"Polygon","coordinates":[[[122.03176593266004,30.661465112739172],[122.03206703346889,30.661405180883857],[122.03113636927993,30.65852654315465],[122.03077515207559,30.658546382982998],[122.03176593266004,30.661465112739172]]]}},{"type":"Feature","properties":{"id":22,"ID_1":22,"Name":"","source_file":"jizhuangxiangport.shp","source_crs":"EPSG:4326","target_crs":"BD09","feature_index":23,"feature_type":"container_yard"},"geometry":{"type":"Polygon","coordinates":[[[122.03209529641106,30.661361904667366],[122.032452892956,30.66127039467543],[122.03149203603412,30.658420678083708],[122.03119095557828,30.65849344090835],[122.03209529641106,30.661361904667366]]]}},{"type":"Feature","properties":{"id":23,"ID_1":23,"Name":"","source_file":"jizhuangxiangport.shp","source_crs":"EPSG:4326","target_crs":"BD09","feature_index":24,"feature_type":"container_yard"},"geometry":{"type":"Polygon","coordinates":[[[122.03262979126313,30.661253725222526],[122.03296106248811,30.66117462095183],[122.03200769719881,30.65826384853685],[122.03163881054572,30.658393927980715],[122.03262979126313,30.661253725222526]]]}},{"type":"Feature","properties":{"id":24,"ID_1":24,"Name":"","source_file":"jizhuangxiangport.shp","source_crs":"EPSG:4326","target_crs":"BD09","feature_index":25,"feature_type":"container_yard"},"geometry":{"type":"Polygon","coordinates":[[[122.03299119540102,30.66114916879566],[122.03333753710547,30.66107667431531],[122.03243668770011,30.658290096025233],[122.03209792394264,30.658368948745697],[122.03299119540102,30.66114916879566]]]}},{"type":"Feature","properties":{"id":25,"ID_1":25,"Name":"","source_file":"jizhuangxiangport.shp","source_crs":"EPSG:4326","target_crs":"BD09","feature_index":26,"feature_type":"container_yard"},"geometry":{"type":"Polygon","coordinates":[[[122.03337519406325,30.661057804025578],[122.03368389978583,30.661004083843874],[122.03275296046166,30.658126586523196],[122.03242927068852,30.658160409488627],[122.03337519406325,30.661057804025578]]]}},{"type":"Feature","properties":{"id":26,"ID_1":26,"Name":"","source_file":"jizhuangxiangport.shp","source_crs":"EPSG:4326","target_crs":"BD09","feature_index":27,"feature_type":"container_yard"},"geometry":{"type":"Polygon","coordinates":[[[122.03374416747053,30.66095962201858],[122.03403784736877,30.66089263565813],[122.03312940478948,30.658041655044073],[122.03279062348686,30.6580947760556],[122.03374416747053,30.66095962201858]]]}},{"type":"Feature","properties":{"id":27,"ID_1":27,"Name":"","source_file":"jizhuangxiangport.shp","source_crs":"EPSG:4326","target_crs":"BD09","feature_index":28,"feature_type":"container_yard"},"geometry":{"type":"Polygon","coordinates":[[[122.03409810141865,30.660867590840578],[122.03440686443008,30.66079425341195],[122.03349821455599,30.658111981537658],[122.03319703879305,30.658178728034933],[122.03409810141865,30.660867590840578]]]}},{"type":"Feature","properties":{"id":27,"ID_1":27,"Name":"","source_file":"jizhuangxiangport.shp","source_crs":"EPSG:4326","target_crs":"BD09","feature_index":29,"feature_type":"container_yard"},"geometry":{"type":"Polygon","coordinates":[[[122.03448214079629,30.66081474924287],[122.03479093128595,30.660734834450462],[122.03385966177532,30.658013649571128],[122.03358102960627,30.65810673228736],[122.03448214079629,30.66081474924287]]]}},{"type":"Feature","properties":{"id":28,"ID_1":28,"Name":"","source_file":"jizhuangxiangport.shp","source_crs":"EPSG:4326","target_crs":"BD09","feature_index":30,"feature_type":"container_yard"},"geometry":{"type":"Polygon","coordinates":[[[122.03484367522263,30.660696691707404],[122.03515999937558,30.660636218351705],[122.03416847245762,30.657862629168175],[122.03388985239202,30.657923390216446],[122.03484367522263,30.660696691707404]]]}},{"type":"Feature","properties":{"id":29,"ID_1":29,"Name":"","source_file":"jizhuangxiangport.shp","source_crs":"EPSG:4326","target_crs":"BD09","feature_index":31,"feature_type":"container_yard"},"geometry":{"type":"Polygon","coordinates":[[[122.03522768651612,30.660734303295833],[122.03553650846176,30.660667148326056],[122.0345751236799,30.65778416586763],[122.03424374660868,30.65788314092782],[122.03522768651612,30.660734303295833]]]}},{"type":"Feature","properties":{"id":30,"ID_1":30,"Name":"","source_file":"jizhuangxiangport.shp","source_crs":"EPSG:4326","target_crs":"BD09","feature_index":32,"feature_type":"container_yard"},"geometry":{"type":"Polygon","coordinates":[[[122.03581498029708,30.660871605414524],[122.03613141519413,30.660752561940686],[122.03517764601162,30.65764343353669],[122.03478599318393,30.657741747001307],[122.03581498029708,30.660871605414524]]]}},{"type":"Feature","properties":{"id":31,"ID_1":31,"Name":"","source_file":"jizhuangxiangport.shp","source_crs":"EPSG:4326","target_crs":"BD09","feature_index":33,"feature_type":"container_yard"},"geometry":{"type":"Polygon","coordinates":[[[122.03622177415492,30.660779613249566],[122.03653064954398,30.66071866668091],[122.03549391063724,30.657673566079392],[122.0352453335767,30.65774800025691],[122.03622177415492,30.660779613249566]]]}},{"type":"Feature","properties":{"id":32,"ID_1":32,"Name":"","source_file":"jizhuangxiangport.shp","source_crs":"EPSG:4326","target_crs":"BD09","feature_index":34,"feature_type":"container_yard"},"geometry":{"type":"Polygon","coordinates":[[[122.03656832306038,30.660706172187123],[122.03687722519847,30.660638651338584],[122.03585547944351,30.65758758241097],[122.03551651403451,30.657660907162462],[122.03656832306038,30.660706172187123]]]}},{"type":"Feature","properties":{"id":33,"ID_1":33,"Name":"","source_file":"jizhuangxiangport.shp","source_crs":"EPSG:4326","target_crs":"BD09","feature_index":35,"feature_type":"container_yard"},"geometry":{"type":"Polygon","coordinates":[[[122.03693749436489,30.66063289270211],[122.03726149172682,30.66055896535202],[122.0362246319942,30.657469186009372],[122.0359233267992,30.657510711952533],[122.03693749436489,30.66063289270211]]]}},{"type":"Feature","properties":{"id":34,"ID_1":34,"Name":"","source_file":"jizhuangxiangport.shp","source_crs":"EPSG:4326","target_crs":"BD09","feature_index":36,"feature_type":"container_yard"},"geometry":{"type":"Polygon","coordinates":[[[122.03729917067972,30.66054644587226],[122.03760059522888,30.66046567765521],[122.03657118130249,30.657389262831643],[122.03629240352618,30.65748947066747],[122.03729917067972,30.66054644587226]]]}},{"type":"Feature","properties":{"id":35,"ID_1":35,"Name":"","source_file":"jizhuangxiangport.shp","source_crs":"EPSG:4326","target_crs":"BD09","feature_index":37,"feature_type":"container_yard"},"geometry":{"type":"Polygon","coordinates":[[[122.03769100946698,30.660460217650066],[122.03800753271861,30.66037302665877],[122.03694790727548,30.657283676895858],[122.03664655957647,30.657325397779417],[122.03769100946698,30.660460217650066]]]}},{"type":"Feature","properties":{"id":36,"ID_1":36,"Name":"","source_file":"jizhuangxiangport.shp","source_crs":"EPSG:4326","target_crs":"BD09","feature_index":38,"feature_type":"container_yard"},"geometry":{"type":"Polygon","coordinates":[[[122.03803014229827,30.66036679515877],[122.03830144241783,30.66031789271287],[122.03730956215355,30.65721665881596],[122.03697805530685,30.657264599712445],[122.03803014229827,30.66036679515877]]]}},{"type":"Feature","properties":{"id":37,"ID_1":37,"Name":"","source_file":"jizhuangxiangport.shp","source_crs":"EPSG:4326","target_crs":"BD09","feature_index":39,"feature_type":"container_yard"},"geometry":{"type":"Polygon","coordinates":[[[122.03836173465396,30.66030557651565],[122.03869334384716,30.660250732575644],[122.03763365255054,30.65705191874412],[122.03733224257822,30.657119742387117],[122.03836173465396,30.66030557651565]]]}},{"type":"Feature","properties":{"id":38,"ID_1":38,"Name":"","source_file":"jizhuangxiangport.shp","source_crs":"EPSG:4326","target_crs":"BD09","feature_index":40,"feature_type":"container_yard"},"geometry":{"type":"Polygon","coordinates":[[[122.03889683956308,30.660220413092464],[122.03928126991538,30.660133523196194],[122.03820637188788,30.656935130976056],[122.03786726034599,30.65699622034206],[122.03889683956308,30.660220413092464]]]}},{"type":"Feature","properties":{"id":39,"ID_1":39,"Name":"","source_file":"jizhuangxiangport.shp","source_crs":"EPSG:4326","target_crs":"BD09","feature_index":41,"feature_type":"container_yard"},"geometry":{"type":"Polygon","coordinates":[[[122.03934159153289,30.660101716075182],[122.03962804531184,30.660046138444873],[122.03853801362585,30.656822026738265],[122.03822148392202,30.6568834643696],[122.03934159153289,30.660101716075182]]]}},{"type":"Feature","properties":{"id":40,"ID_1":40,"Name":"","source_file":"jizhuangxiangport.shp","source_crs":"EPSG:4326","target_crs":"BD09","feature_index":42,"feature_type":"container_yard"},"geometry":{"type":"Polygon","coordinates":[[[122.0396732740287,30.66004008346858],[122.04001252312868,30.65997193403162],[122.03895248441965,30.656819789085866],[122.03859823936152,30.656893917804126],[122.0396732740287,30.66004008346858]]]}},{"type":"Feature","properties":{"id":41,"ID_1":41,"Name":"","source_file":"jizhuangxiangport.shp","source_crs":"EPSG:4326","target_crs":"BD09","feature_index":43,"feature_type":"container_yard"},"geometry":{"type":"Polygon","coordinates":[[[122.04006532182534,30.659933538430092],[122.04038197260495,30.65987802057579],[122.03929172421246,30.65669356584159],[122.03899021218236,30.656761859480405],[122.04006532182534,30.659933538430092]]]}},{"type":"Feature","properties":{"id":42,"ID_1":42,"Name":"","source_file":"jizhuangxiangport.shp","source_crs":"EPSG:4326","target_crs":"BD09","feature_index":44,"feature_type":"container_yard"},"geometry":{"type":"Polygon","coordinates":[[[122.040427231289,30.659846019318667],[122.04071376789715,30.65977070380278],[122.03964599407138,30.65665159469749],[122.0393670698011,30.65672020914671],[122.040427231289,30.659846019318667]]]}},{"type":"Feature","properties":{"id":43,"ID_1":43,"Name":"","source_file":"jizhuangxiangport.shp","source_crs":"EPSG:4326","target_crs":"BD09","feature_index":45,"feature_type":"container_yard"},"geometry":{"type":"Polygon","coordinates":[[[122.04076654032181,30.659771141462063],[122.04109078931364,30.65970250855504],[122.04006067079982,30.656512865690672],[122.03966867352905,30.656567584730585],[122.04076654032181,30.659771141462063]]]}},{"type":"Feature","properties":{"id":44,"ID_1":44,"Name":"","source_file":"jizhuangxiangport.shp","source_crs":"EPSG:4326","target_crs":"BD09","feature_index":46,"feature_type":"container_yard"},"geometry":{"type":"Polygon","coordinates":[[[122.04115864519257,30.659703045455107],[122.04145276112688,30.65963405806592],[122.04034724657238,30.656353428279346],[122.04006076437585,30.656396250976158],[122.04115864519257,30.659703045455107]]]}},{"type":"Feature","properties":{"id":45,"ID_1":45,"Name":"","source_file":"jizhuangxiangport.shp","source_crs":"EPSG:4326","target_crs":"BD09","feature_index":47,"feature_type":"container_yard"},"geometry":{"type":"Polygon","coordinates":[[[122.04151309910984,30.65961507897099],[122.04183738330342,30.65956564011858],[122.04075438836315,30.65628561694238],[122.04042262998232,30.65635408007371],[122.04151309910984,30.65961507897099]]]}},{"type":"Feature","properties":{"id":45,"ID_1":45,"Name":"","source_file":"jizhuangxiangport.shp","source_crs":"EPSG:4326","target_crs":"BD09","feature_index":48,"feature_type":"container_yard"},"geometry":{"type":"Polygon","coordinates":[[[122.04202596695026,30.659495718556087],[122.04235029851762,30.659433156262946],[122.0412446253845,30.65606280501682],[122.04089020466417,30.656144202142517],[122.04202596695026,30.659495718556087]]]}},{"type":"Feature","properties":{"id":46,"ID_1":46,"Name":"","source_file":"jizhuangxiangport.shp","source_crs":"EPSG:4326","target_crs":"BD09","feature_index":49,"feature_type":"container_yard"},"geometry":{"type":"Polygon","coordinates":[[[122.04240311220582,30.65940759453684],[122.04275011385376,30.659325616310817],[122.04162915242783,30.65608516527404],[122.04131242185183,30.656141075369487],[122.04240311220582,30.65940759453684]]]}},{"type":"Feature","properties":{"id":47,"ID_1":47,"Name":"","source_file":"jizhuangxiangport.shp","source_crs":"EPSG:4326","target_crs":"BD09","feature_index":50,"feature_type":"container_yard"},"geometry":{"type":"Polygon","coordinates":[[[122.04280294334438,30.6592870765924],[122.04306698755774,30.659223901866206],[122.04198360412933,30.656035900380342],[122.0416894705863,30.656092089245313],[122.04280294334438,30.6592870765924]]]}},{"type":"Feature","properties":{"id":48,"ID_1":48,"Name":"","source_file":"jizhuangxiangport.shp","source_crs":"EPSG:4326","target_crs":"BD09","feature_index":51,"feature_type":"container_yard"},"geometry":{"type":"Polygon","coordinates":[[[122.04311980943864,30.659198301780915],[122.04347438078193,30.65914850472397],[122.04238346003116,30.655824845200986],[122.04203652387214,30.655867826647228],[122.04311980943864,30.659198301780915]]]}},{"type":"Feature","properties":{"id":49,"ID_1":49,"Name":"","source_file":"jizhuangxiangport.shp","source_crs":"EPSG:4326","target_crs":"BD09","feature_index":52,"feature_type":"container_yard"},"geometry":{"type":"Polygon","coordinates":[[[122.04351215393547,30.65908392978361],[122.04379131579043,30.659033600004005],[122.04272281417784,30.655865917423203],[122.04244373722696,30.655896510100767],[122.04351215393547,30.65908392978361]]]}},{"type":"Feature","properties":{"id":50,"ID_1":50,"Name":"","source_file":"jizhuangxiangport.shp","source_crs":"EPSG:4326","target_crs":"BD09","feature_index":53,"feature_type":"container_yard"},"geometry":{"type":"Polygon","coordinates":[[[122.04384416830992,30.658982047521274],[122.04416863996235,30.658905929497937],[122.04309256761103,30.65564790592875],[122.04269277765125,30.65569728121957],[122.04384416830992,30.658982047521274]]]}},{"type":"Feature","properties":{"id":51,"ID_1":51,"Name":"","source_file":"jizhuangxiangport.shp","source_crs":"EPSG:4326","target_crs":"BD09","feature_index":54,"feature_type":"container_yard"},"geometry":{"type":"Polygon","coordinates":[[[122.04427450369084,30.658627864707096],[122.04459900561336,30.658551603387714],[122.04361317482666,30.655488890431517],[122.04324348615746,30.655571045652408],[122.04427450369084,30.658627864707096]]]}},{"type":"Feature","properties":{"id":52,"ID_1":52,"Name":"","source_file":"jizhuangxiangport.shp","source_crs":"EPSG:4326","target_crs":"BD09","feature_index":55,"feature_type":"container_yard"},"geometry":{"type":"Polygon","coordinates":[[[122.04465185601471,30.658512963653237],[122.04499902813028,30.65843018855369],[122.0440507370631,30.65547820049386],[122.04370365414016,30.65554768386002],[122.04465185601471,30.658512963653237]]]}},{"type":"Feature","properties":{"id":53,"ID_1":53,"Name":"","source_file":"jizhuangxiangport.shp","source_crs":"EPSG:4326","target_crs":"BD09","feature_index":56,"feature_type":"container_yard"},"geometry":{"type":"Polygon","coordinates":[[[122.04506696421893,30.658404542999254],[122.04536886092541,30.658353849651274],[122.0443752266813,30.655389053257647],[122.04409601855377,30.655458987786208],[122.04409601855377,30.655458987786208],[122.04506696421893,30.658404542999254]]]}},{"type":"Feature","properties":{"id":54,"ID_1":54,"Name":"","source_file":"jizhuangxiangport.shp","source_crs":"EPSG:4326","target_crs":"BD09","feature_index":57,"feature_type":"container_yard"},"geometry":{"type":"Polygon","coordinates":[[[122.04529373448221,30.657951912695502],[122.04558809885098,30.657901123209296],[122.04472987630048,30.655358235507226],[122.04442047633273,30.65541517643853],[122.04529373448221,30.657951912695502]]]}},{"type":"Feature","properties":{"id":55,"ID_1":55,"Name":"","source_file":"jizhuangxiangport.shp","source_crs":"EPSG:4326","target_crs":"BD09","feature_index":58,"feature_type":"container_yard"},"geometry":{"type":"Polygon","coordinates":[[[122.04560333347868,30.657732734163083],[122.0459203978724,30.657636570317333],[122.04509963593705,30.655340304688735],[122.04479020568888,30.655403841839917],[122.04560333347868,30.657732734163083]]]}},{"type":"Feature","properties":{"id":56,"ID_1":56,"Name":"","source_file":"jizhuangxiangport.shp","source_crs":"EPSG:4326","target_crs":"BD09","feature_index":59,"feature_type":"container_yard"},"geometry":{"type":"Polygon","coordinates":[[[122.04586029170885,30.657305982260244],[122.04616224535407,30.657248563124096],[122.04548459901636,30.655218626389054],[122.04512985544282,30.655295070349275],[122.04586029170885,30.657305982260244]]]}},{"type":"Feature","properties":{"id":56,"ID_1":56,"Name":"","source_file":"jizhuangxiangport.shp","source_crs":"EPSG:4326","target_crs":"BD09","feature_index":60,"feature_type":"container_yard"},"geometry":{"type":"Polygon","coordinates":[[[122.0461774739725,30.65708664198734],[122.04649456118342,30.65700972532949],[122.04584698688302,30.655051373900637],[122.0454997669982,30.655121497875246],[122.0461774739725,30.65708664198734]]]}},{"type":"Feature","properties":{"id":57,"ID_1":57,"Name":"","source_file":"jizhuangxiangport.shp","source_crs":"EPSG:4326","target_crs":"BD09","feature_index":61,"feature_type":"container_yard"},"geometry":{"type":"Polygon","coordinates":[[[122.04645744575829,30.656232203119238],[122.04679719758174,30.65615524260972],[122.04634530763803,30.654832517920443],[122.04602071743213,30.654870493258308],[122.04645744575829,30.656232203119238]]]}}]}