{"type":"FeatureCollection","features":[{"type":"Feature","properties":{"osm_id":"11580254","osm_way_id":"","name":"大乌龟岛","type":"multipolygon","aeroway":"","amenity":"","admin_leve":"","barrier":"","boundary":"","building":"","craft":"","geological":"","historic":"","land_area":"","landuse":"","leisure":"","man_made":"","military":"","natural":"","office":"","place":"island","shop":"","sport":"","tourism":"","other_tags":"\"name:en\"=>\"Dawugui Island\",\"name:zh\"=>\"大乌龟岛\",\"name:zh-Hans\"=>\"大乌龟岛\",\"name:zh-Hant\"=>\"大烏龜島\"","source_file":"yangshangpolygon.shp","source_crs":"EPSG:4326","target_crs":"BD09","feature_index":1},"geometry":{"type":"MultiPolygon","coordinates":[[[[122.04860034730721,30.660044663314107],[122.0485895388903,30.66001705454874],[122.04855866403985,30.65999624100699],[122.04846451281063,30.659960399459653],[122.04838379579657,30.65993325734669],[122.04831660961324,30.659918218777428],[122.0482748756976,30.659930296986957],[122.04823984109713,30.65996608270201],[122.04821964329412,30.660009878756316],[122.0482263284495,30.66004919140106],[122.04824917846851,30.660068810192975],[122.04828928198063,30.66008563818391],[122.04836349729241,30.660090780177878],[122.0484375105602,30.660098917057688],[122.04849266439984,30.66011164227949],[122.04853428733686,30.66011395772223],[122.0485625816366,30.66010356470196],[122.04858546989435,30.660081666924764],[122.04860034730721,30.660044663314107]]],[[[122.04817555777915,30.660414333252195],[122.04812249959181,30.660417795076583],[122.04810363646577,30.660426982467623],[122.04809289341829,30.660440276804778],[122.04808946974077,30.66045577732419],[122.04810018562772,30.660473089385935],[122.04811772186251,30.66048990646806],[122.04817747454405,30.660514755533026],[122.0482231990556,30.660525688916362],[122.04827705305293,30.660530923889468],[122.04833421597824,30.66053785803976],[122.04841154267254,30.660541397683875],[122.0484512637881,30.660538514685598],[122.04848617286254,30.660533327740147],[122.04851987449862,30.660532740076555],[122.04859108992831,30.660531662348994],[122.04861736934258,30.660531669338916],[122.04863823764954,30.66052587318015],[122.0486711527985,30.660508576638026],[122.04868872451412,30.660487875646652],[122.04869947508855,30.660467673317083],[122.04869949816043,30.66044166791374],[122.04869751964031,30.660410561107636],[122.0486921262138,30.660384554760864],[122.04868743491694,30.660358548509063],[122.04868013099659,30.660337842847923],[122.04866800130878,30.66032973879934],[122.04864984773647,30.66032803463033],[122.04862627837015,30.66032572869426],[122.04858454722209,30.660331418824853],[122.04855293888285,30.660346212347083],[122.048520612434,30.66037930840689],[122.04849772181693,30.66040410525153],[122.04846812041296,30.660418496692408],[122.04842779479087,30.66042428070807],[122.04836590950154,30.6604254513287],[122.04831856948866,30.66042502592644],[122.04823813946325,30.66041667590372],[122.04817555777915,30.660414333252195]]],[[[122.02077099684544,30.664664936851977],[122.02080753285654,30.664670533244195],[122.0208194083012,30.66467639292832],[122.02083618054726,30.664677257989105],[122.02093394220772,30.66465747899155],[122.02106148113178,30.66461163807725],[122.0211837162561,30.664579781290808],[122.02121317485098,30.664574018159314],[122.02123723777247,30.664572838995475],[122.02126339521767,30.664574005540274],[122.02128076306276,30.664578982545393],[122.0213202846041,30.664596041420477],[122.02135391118034,30.664617773464894],[122.02138054050738,30.66464845595796],[122.02143192326244,30.664687274848145],[122.02147753383584,30.664706163992598],[122.02151985628909,30.664717980054185],[122.02155679635452,30.664720077389852],[122.02160073053746,30.664716823923886],[122.02168549341208,30.664721751049235],[122.02174660082288,30.66471886557584],[122.02177747044885,30.66469992535064],[122.0218297463042,30.664638735554252],[122.02186725845296,30.664563324737905],[122.02188090064786,30.664495402656755],[122.02186928433852,30.664424937545665],[122.02187949627262,30.66439515025361],[122.02190438258302,30.66436847868052],[122.02197597737478,30.66436261360386],[122.02201612266775,30.66435487262503],[122.02203819363268,30.66434954445146],[122.02206905149657,30.664343804254614],[122.02208742540053,30.664341497235156],[122.02214255086896,30.664330674774842],[122.02222915136163,30.66429521867599],[122.02229178874292,30.66425984874427],[122.0223228741381,30.66422470446549],[122.02232829911209,30.66418901231286],[122.02234302260347,30.664139715518026],[122.02240426991237,30.664096411947288],[122.02247169014495,30.664072442907777],[122.02259671447426,30.664058699390583],[122.02267790724801,30.664043020296088],[122.02277817390032,30.664025342806823],[122.02292283908734,30.664046809559924],[122.02312260443396,30.664090335479422],[122.0232589834842,30.664113810947143],[122.0233802094202,30.664111956202134],[122.02349176556692,30.664093789977954],[122.02357936641751,30.664065416203872],[122.02375177741608,30.664004900886365],[122.02432905131197,30.663814420317227],[122.02514392389489,30.663539204988343],[122.02556410998916,30.663410342532767],[122.02603675942095,30.663272434015585],[122.02611136711921,30.66327591194162],[122.02617506559143,30.66330397708499],[122.02623416075167,30.663341951592102],[122.02629023784753,30.663403670133775],[122.02639496699136,30.663564464809593],[122.02652031381494,30.663681847788503],[122.02662245694616,30.663725553582132],[122.02670505909046,30.663730564930052],[122.02677520813789,30.663700823010757],[122.0268636404388,30.663667932310318],[122.02695213083148,30.663681148664953],[122.02708002396861,30.66375423361379],[122.02717197675557,30.663806414603304],[122.02728675948372,30.66390913944886],[122.02746099564939,30.66410481126782],[122.02756980158075,30.664193300731576],[122.02769323325998,30.664239851026824],[122.02781149021075,30.664266790651087],[122.02794615035637,30.664275026068854],[122.02810589450564,30.664277218248763],[122.02849485190323,30.664257834432625],[122.02865799142111,30.66427413897363],[122.02885988426343,30.66430883751972],[122.02946765607822,30.664347200778707],[122.03063584877576,30.664465495287057],[122.03145382548185,30.664560511240097],[122.0318209818188,30.664649619244003],[122.03197648794138,30.66468443293134],[122.0321051317767,30.664693394326424],[122.03221377634421,30.664711827821176],[122.03227133718562,30.664732945048183],[122.03234579185894,30.66475542666899],[122.03240544461464,30.664785872993093],[122.03243292826481,30.66479430685963],[122.03248371805495,30.664788802555922],[122.03255691448165,30.664769743375757],[122.0326065309559,30.664737110068366],[122.03266965923225,30.664688381231954],[122.03277337446596,30.664643377612],[122.0328975867267,30.664598480345532],[122.03301689740648,30.66455919739457],[122.03316094326958,30.6644798692657],[122.03332749096053,30.664398662090644],[122.03344797643486,30.664288340516354],[122.03348573393012,30.6642212884378],[122.0335781997256,30.664138843015987],[122.03368417857803,30.66404258665956],[122.03372039972687,30.66401641359763],[122.03376442541392,30.663984952711385],[122.03380871846319,30.663989001796217],[122.03384749825275,30.66400807211131],[122.03387886776562,30.664038935866405],[122.0339386128679,30.664094816251215],[122.03399894750673,30.664162604778078],[122.03408195093444,30.66426412399424],[122.03417487139654,30.66434857582479],[122.03423753122637,30.664391980454088],[122.03435264044067,30.66449193810805],[122.03446528659549,30.66455464201873],[122.03453098191112,30.664563666595253],[122.0345872946837,30.664554052514873],[122.03462619827445,30.664553395187912],[122.03465569707595,30.66455730676508],[122.03467448664298,30.664570270783752],[122.03467846980651,30.664588730080293],[122.03465832851187,30.66463115919342],[122.03460997570626,30.66468359689542],[122.03456704413136,30.664714103762375],[122.03455231320974,30.66474620452221],[122.03456428803622,30.6647740780652],[122.03460726906196,30.66479778360214],[122.03470375881544,30.664817630159742],[122.03477217023752,30.664812776042524],[122.0348325913787,30.664797405772752],[122.03486001466939,30.664775978244517],[122.03487825979174,30.664730018915442],[122.03488300936436,30.66467747283408],[122.03489705013527,30.664635656416404],[122.03491858392097,30.664602444262236],[122.03498300825271,30.664586020824146],[122.03506072562446,30.66458017651744],[122.03511044057848,30.664572948371042],[122.035135062209,30.6645542770972],[122.03516008644017,30.66453301017528],[122.03518150616591,30.664515995103297],[122.0352392464175,30.664484464270345],[122.0353224890088,30.664456771894784],[122.03539493173258,30.664427729883503],[122.03545257539602,30.664394986860028],[122.035517530139,30.664352935286377],[122.0355609867362,30.664303796372142],[122.03560004620319,30.66425069737333],[122.03569063118589,30.664185666560368],[122.03576188037648,30.664154685440852],[122.03580852036367,30.664126582861908],[122.03582244513606,30.664104457924736],[122.03581676511426,30.664081079617983],[122.03579427800885,30.66405988455807],[122.03575000854816,30.66401290126058],[122.03574276379064,30.6639510940771],[122.0356838151062,30.663877711993383],[122.03563557739436,30.66379626516462],[122.03561151185232,30.663752140952727],[122.03560352735566,30.663625109220963],[122.03560102710767,30.663516553229012],[122.03556887888058,30.663451517712105],[122.03552601968867,30.663395642285685],[122.0354319598409,30.663327785556305],[122.0353812196253,30.66325059570931],[122.03538397766384,30.663188318994766],[122.03540553328244,30.66313319340787],[122.03549142027033,30.66306051434317],[122.03571442137067,30.66301432539532],[122.0369808649885,30.66276522467298],[122.03824276784091,30.662466004885413],[122.03901260991528,30.662271820848318],[122.0398319656665,30.662037817189933],[122.04073813491273,30.66173737040791],[122.04158889163368,30.66144110285809],[122.04250436866089,30.6610816230531],[122.04332013504178,30.660726534307695],[122.04440692303862,30.660240221016682],[122.0450941008573,30.659921663128717],[122.04565165639778,30.659619402738308],[122.04573770377269,30.65957117320472],[122.04580498733496,30.659546082074485],[122.04586956140714,30.65952547888835],[122.04593402404119,30.659518774041015],[122.04602008641942,30.659574441719425],[122.04613829388389,30.65967170132631],[122.0462753657645,30.65975279346281],[122.04645006363619,30.6598040540223],[122.0466786626318,30.659792992519254],[122.0469210254402,30.659763800873918],[122.04713326642694,30.659680884147438],[122.04734851515737,30.659609728182353],[122.04758395152139,30.65951424608879],[122.0477792672379,30.65943986754223],[122.04784897421767,30.659430340689568],[122.04794043648172,30.659430431759915],[122.04802247031407,30.65943390684514],[122.04808965631251,30.659444364801942],[122.04813136086004,30.659464001230507],[122.04815420556042,30.659489423534225],[122.04816901780976,30.659525241801735],[122.0481769076292,30.659563555507965],[122.04820526485895,30.659593381403955],[122.04823514116262,30.659606603942056],[122.04829279938467,30.659620142312612],[122.04837606438947,30.659599183143143],[122.04846216222566,30.659551912474804],[122.04853221135788,30.659506929350083],[122.04860247221447,30.659450338794322],[122.04877078074232,30.659222621278168],[122.0488813942369,30.65913680747935],[122.04901144181652,30.659084485567146],[122.04917679651054,30.659040737594573],[122.04945508999457,30.659029107049935],[122.04972936591705,30.659041906356148],[122.05000747216798,30.65905282436356],[122.05035362823041,30.659060362598986],[122.05080536960725,30.659076279319518],[122.05116503507475,30.659079907110364],[122.0514511891609,30.659050093393624],[122.05203414876787,30.658919172593787],[122.05219558877063,30.65888053606711],[122.05228988044296,30.65883990701369],[122.052335676288,30.658814342812697],[122.05241650535346,30.658789852313635],[122.05253767510746,30.658783611234973],[122.05266285054122,30.65879234366038],[122.05284052614782,30.658810154809853],[122.05298326551753,30.6588337810594],[122.05316396263329,30.658853724224223],[122.05321486508211,30.65885360410183],[122.05325121601507,30.65884644388761],[122.0532794494516,30.65882211463417],[122.0532781630089,30.658800215715058],[122.05325931331068,30.658770292386063],[122.05324719247096,30.658738038770053],[122.05324460378449,30.658712644768315],[122.05325667948112,30.65868028503611],[122.0532742674253,30.65865940330279],[122.0532930631427,30.658635115209524],[122.05328906380919,30.65861552877107],[122.05326889688911,30.65859951434138],[122.05323527253796,30.658588059348],[122.05318808747599,30.65858486370374],[122.05311409661607,30.658581680195056],[122.05300366306358,30.658578643047658],[122.05285156975988,30.65857466113597],[122.05269155204502,30.658568686707948],[122.05254278055388,30.658565246309045],[122.05242342332713,30.65856478007548],[122.05235477496949,30.658548819899234],[122.05230230070892,30.6585189963581],[122.05225384118954,30.658490356671102],[122.05220628605834,30.658461111496116],[122.05215279621441,30.658446986959916],[122.05209639184872,30.65843777013175],[122.05201781321561,30.658419018819096],[122.0519345278538,30.658388973570823],[122.0518159963398,30.658379131295295],[122.05157281091829,30.6583697238879],[122.05133455241278,30.658363846103367],[122.05100362477371,30.658302004795544],[122.0507478784656,30.658242813466856],[122.05052183038981,30.658204011193057],[122.05011661497262,30.658135895393322],[122.04989812005908,30.6580991414194],[122.04978731228,30.65803183714009],[122.04970392477546,30.657930389900752],[122.04966097171184,30.657826503058693],[122.04964488280014,30.65775039937925],[122.04965037152527,30.657664976354276],[122.04975019548903,30.65730261198078],[122.04983926434987,30.656963252682523],[122.04991727577121,30.65664840212978],[122.04996149532406,30.656432105314558],[122.0499636088683,30.656298372819556],[122.04999335564803,30.656111396856108],[122.05003653725679,30.65593600654154],[122.05013415572971,30.655817758583012],[122.0507033707192,30.65533375030931],[122.05117169025574,30.65484395409688],[122.05132421398311,30.654607231243247],[122.05138211950079,30.65447705502153],[122.05142794841491,30.654391617272566],[122.0514562689934,30.65436723781652],[122.0515073732605,30.654341796808776],[122.0515367942919,30.654322813420393],[122.05155186595461,30.654300067278093],[122.05155188813015,30.65427006009234],[122.05154107077027,30.654240082233585],[122.05151960531832,30.65422283586097],[122.05148729548283,30.654212519435337],[122.05144555077959,30.65420342688177],[122.05139307616417,30.65418275727849],[122.05136348451366,30.654162127459237],[122.05132989473317,30.65411950147191],[122.05131105141749,30.654086040209194],[122.05129090257576,30.65405378207088],[122.05127607367483,30.654020410308],[122.05126676129498,30.653991526022875],[122.0512506235725,30.653963858410556],[122.05122777774915,30.653914301308053],[122.05121567114325,30.653863617942523],[122.05121439243766,30.653827812352223],[122.05119414424449,30.6537943521438],[122.05113366599274,30.653742580151516],[122.05100716714689,30.653673645522584],[122.05090856545036,30.653610138839415],[122.05079378215054,30.653584563308797],[122.05048783593878,30.65356960981278],[122.0501514224737,30.653533196876992],[122.04985004148804,30.653505837222273],[122.04948406548239,30.6534876301863],[122.04929708369744,30.65346702446862],[122.04917059181412,30.65345666890733],[122.04906165233967,30.653454395718565],[122.04896744471735,30.653475114699898],[122.04887594148684,30.65350402660667],[122.04879186861774,30.653524728556466],[122.04874542089188,30.653532825711782],[122.04872054584361,30.653531721945527],[122.04869236301059,30.653527616212102],[122.04867552046247,30.653515510027816],[122.04866209245355,30.653497602860437],[122.04864726185795,30.653477394620644],[122.04863051890324,30.653466487971937],[122.04860564575557,30.65346358083289],[122.0485760539685,30.653467073223236],[122.04514207416194,30.654311678001456],[122.04519075534122,30.654486205837337],[122.04464765243331,30.654620029671523],[122.04456838079143,30.654621982438496],[122.04452940118713,30.65461720794648],[122.04450516010507,30.654603195980286],[122.04448904665553,30.65457541676173],[122.04438442765579,30.65430377360409],[122.04433880712553,30.65420203714573],[122.0443065637704,30.65416957833434],[122.0442608776257,30.65415775983126],[122.04421518002884,30.654162143094318],[122.04409962348267,30.654189289405792],[122.03643392719572,30.656028886751297],[122.03165342829796,30.657146321799683],[122.02687119485799,30.658233053380723],[122.02258721744893,30.659211904949647],[122.02086156842223,30.659598267433125],[122.02078387705859,30.6596167814071],[122.02076180388055,30.65962670319825],[122.02075371048123,30.65963402867827],[122.02075240399905,30.659643802484467],[122.02075499064219,30.659654261212506],[122.0208498926408,30.659932690422156],[122.02084987022353,30.65995809576406],[122.02084207211114,30.659970128908206],[122.02041527788528,30.660065146103037],[122.02038312212818,30.660074245514],[122.02036833885347,30.66008252428948],[122.02036433622789,30.660092839158406],[122.02036502480819,30.660104456871895],[122.02047407891342,30.660406608540914],[122.02047713874722,30.660446084360302],[122.02047710373016,30.660485392559377],[122.02046239904452,30.6605173787463],[122.02043153022532,30.660538609353182],[122.02039008296651,30.660555007481666],[122.02023739666411,30.66059437716169],[122.01994541490437,30.6606617935717],[122.01951692786149,30.660767798116776],[122.01904551092758,30.660882025370245],[122.01801434611075,30.661106127953452],[122.0169189804841,30.661356314393554],[122.01600574976601,30.661557514060263],[122.01534960156853,30.66173104418527],[122.01524654665349,30.66176235863214],[122.01520489145777,30.661790138397212],[122.01519418972279,30.661811805267444],[122.01519546758462,30.661833738625205],[122.0152088279674,30.661852539997753],[122.0152476481645,30.661868407011923],[122.01529856348914,30.661867239358354],[122.01577524976265,30.661767027368935],[122.01692691404224,30.66152502923275],[122.01839992402697,30.661183903057964],[122.01884985367542,30.66108764653473],[122.01956551399763,30.660916201544005],[122.01970250768194,30.660893410343732],[122.01983060273983,30.66088612387325],[122.01996298657842,30.660884129677893],[122.02008866888897,30.660896788583496],[122.0202050570281,30.66092054340727],[122.02034379015042,30.660965588888583],[122.02045375511801,30.661028006007705],[122.02058706004907,30.661115635313703],[122.02067764157778,30.661195528113588],[122.02075613776496,30.66128105718162],[122.02081066906261,30.661370564302526],[122.02109284690737,30.662216984970176],[122.02141064734836,30.663190782589762],[122.0215392627943,30.66360365124534],[122.021549372228,30.663684187219854],[122.02154133469088,30.663738225860985],[122.02151979715033,30.663815078284237],[122.0214929701566,30.663889515873795],[122.02145896038212,30.66395759675551],[122.02138706639654,30.664072969221742],[122.02133065564344,30.66418027341784],[122.02127577700936,30.664250601718436],[122.0212141426299,30.66428507495452],[122.02113504524438,30.664309866521155],[122.02107393580683,30.66431714288402],[122.02097168021551,30.664337427729546],[122.02090746709291,30.664354536341975],[122.02084984085161,30.664374587874768],[122.02082706493842,30.664387995435504],[122.0208015677504,30.664428949777395],[122.02078616486389,30.66445862116557],[122.02076936528663,30.664487161843503],[122.02076005853976,30.66451046441957],[122.02075862207921,30.664552042384],[122.02075190755848,30.664579202232847],[122.02073189783457,30.664624176521105],[122.02073707427253,30.66464049286938],[122.02074894380827,30.664652654021697],[122.02077099684544,30.664664936851977]]]]}},{"type":"Feature","properties":{"osm_id":"","osm_way_id":"9987750","name":"","type":"","aeroway":"","amenity":"","admin_leve":"","barrier":"","boundary":"","building":"","craft":"","geological":"","historic":"","land_area":"","landuse":"","leisure":"","man_made":"","military":"","natural":"coastline","office":"","place":"","shop":"","sport":"","tourism":"","other_tags":"","source_file":"yangshangpolygon.shp","source_crs":"EPSG:4326","target_crs":"BD09","feature_index":2},"geometry":{"type":"Polygon","coordinates":[[[122.04900212367053,30.660447473218845],[122.04889050668338,30.660415175901743],[122.04883534813982,30.660402473196847],[122.04879903877692,30.660400170976537],[122.0487607000723,30.66042437270708],[122.04872505555458,30.660464776688055],[122.04866309458633,30.660546682930015],[122.04861930364729,30.660612386584948],[122.04860112152235,30.660642988211894],[122.04860110763043,30.660658591444356],[122.04860851776938,30.66067239627204],[122.04863737996568,30.660700709257778],[122.0486776719707,30.660734724810958],[122.04869921434192,30.66076073406089],[122.04872275577576,30.66079474477794],[122.04874359565532,30.660821353063856],[122.04876846030322,30.66083405842896],[122.04879403393456,30.6608392616606],[122.04881951776295,30.660832861821017],[122.04883839263807,30.660813858564048],[122.0488639893384,30.66079365471498],[122.04889288406635,30.66078725295565],[122.04894263520474,30.660790150802747],[122.0489950993977,30.660788444806585],[122.04902067741203,30.660790141385306],[122.04904285368406,30.6607820358998],[122.04905099338337,30.66076593104794],[122.04905171546727,30.66074362630043],[122.04904631213284,30.660728424181798],[122.04901403267833,30.660704724774117],[122.0489630111188,30.660663222694964],[122.04892732986701,30.660630318850142],[122.04891390061107,30.660616516770546],[122.04891120247953,30.660605014521455],[122.04891933887835,30.660592311460917],[122.04894020544383,30.660590009577437],[122.04897711573246,30.660594606952078],[122.04902224576915,30.660606103065902],[122.04905383861309,30.660612398743126],[122.04909345569651,30.660619891797314],[122.04912305288344,30.66061478334544],[122.04914593591978,30.66060207438464],[122.04916210825887,30.66057776455566],[122.04916213182081,30.660551259058806],[122.04914339139742,30.660530460281663],[122.04910439574705,30.66050046442462],[122.04906539828079,30.660472867507348],[122.04900212367053,30.660447473218845]]]}},{"type":"Feature","properties":{"osm_id":"","osm_way_id":"815559860","name":"","type":"","aeroway":"","amenity":"","admin_leve":"","barrier":"","boundary":"","building":"yes","craft":"","geological":"","historic":"","land_area":"","landuse":"","leisure":"","man_made":"","military":"","natural":"","office":"","place":"","shop":"","sport":"","tourism":"","other_tags":"","source_file":"yangshangpolygon.shp","source_crs":"EPSG:4326","target_crs":"BD09","feature_index":3},"geometry":{"type":"Polygon","coordinates":[[[122.03110593664626,30.662573112601454],[122.0310869603635,30.66255809225298],[122.03106338113834,30.662548995932426],[122.03103789680935,30.662546668783897],[122.03101180594831,30.662551932660257],[122.03098940662778,30.662564359585087],[122.03097319869313,30.662582591430684],[122.03096508304795,30.66260445987895],[122.0309659613571,30.66262757969814],[122.03097573606493,30.66264934866273],[122.03099321026559,30.66266714592573],[122.03101658676103,30.662679040645493],[122.03104296839848,30.662683683715333],[122.03106825762687,30.66268080636576],[122.03109115440007,30.662671187100603],[122.03110905926039,30.662655682819057],[122.03112027142133,30.662636065714754],[122.03112358974404,30.66261421631614],[122.03111861222835,30.662592528493054],[122.03110593664626,30.662573112601454]]]}},{"type":"Feature","properties":{"osm_id":"","osm_way_id":"815559861","name":"","type":"","aeroway":"","amenity":"","admin_leve":"","barrier":"","boundary":"","building":"yes","craft":"","geological":"","historic":"","land_area":"","landuse":"","leisure":"","man_made":"","military":"","natural":"","office":"","place":"","shop":"","sport":"","tourism":"","other_tags":"","source_file":"yangshangpolygon.shp","source_crs":"EPSG:4326","target_crs":"BD09","feature_index":4},"geometry":{"type":"Polygon","coordinates":[[[122.02982536890775,30.66285891061038],[122.03035102052318,30.662741638731237],[122.03036875837525,30.662796956445717],[122.03084437062681,30.662690845314497],[122.0307988139065,30.66256284715289],[122.03078825119105,30.662528760910934],[122.03078975754906,30.662520884684163],[122.03070229025403,30.662540405656124],[122.03068584672432,30.662489314993465],[122.02977205961199,30.66269323546873],[122.02982536890775,30.66285891061038]]]}},{"type":"Feature","properties":{"osm_id":"","osm_way_id":"815559862","name":"","type":"","aeroway":"","amenity":"","admin_leve":"","barrier":"","boundary":"","building":"yes","craft":"","geological":"","historic":"","land_area":"","landuse":"","leisure":"","man_made":"","military":"","natural":"","office":"","place":"","shop":"","sport":"","tourism":"","other_tags":"","source_file":"yangshangpolygon.shp","source_crs":"EPSG:4326","target_crs":"BD09","feature_index":5},"geometry":{"type":"Polygon","coordinates":[[[122.03004473625366,30.66391788506518],[122.0304981078113,30.663954130952717],[122.03051083865346,30.6638047164468],[122.03005746611066,30.663768574488156],[122.03004473625366,30.66391788506518]]]}},{"type":"Feature","properties":{"osm_id":"","osm_way_id":"815559863","name":"","type":"","aeroway":"","amenity":"","admin_leve":"","barrier":"","boundary":"","building":"yes","craft":"","geological":"","historic":"","land_area":"","landuse":"","leisure":"","man_made":"","military":"","natural":"","office":"","place":"","shop":"","sport":"","tourism":"","other_tags":"","source_file":"yangshangpolygon.shp","source_crs":"EPSG:4326","target_crs":"BD09","feature_index":6},"geometry":{"type":"Polygon","coordinates":[[[122.03057314697406,30.66397031804708],[122.03088594525173,30.663991930597835],[122.03089799638562,30.663821896714705],[122.03058519751072,30.663800286778493],[122.03057314697406,30.66397031804708]]]}},{"type":"Feature","properties":{"osm_id":"","osm_way_id":"815559864","name":"","type":"","aeroway":"","amenity":"","admin_leve":"","barrier":"","boundary":"","building":"yes","craft":"","geological":"","historic":"","land_area":"","landuse":"","leisure":"","man_made":"","military":"","natural":"","office":"","place":"","shop":"","sport":"","tourism":"","other_tags":"","source_file":"yangshangpolygon.shp","source_crs":"EPSG:4326","target_crs":"BD09","feature_index":7},"geometry":{"type":"Polygon","coordinates":[[[122.03110905926039,30.662655682819057],[122.03180727259804,30.66250403124254],[122.03175106034436,30.662324380905282],[122.03129797694868,30.662422773692686],[122.03128821056617,30.6623913050113],[122.03095981601142,30.662462540280092],[122.03096828652728,30.662489688562985],[122.03078825119105,30.662528760910934],[122.0307988139065,30.66256284715289],[122.03097695015522,30.662524241658367],[122.03098940662778,30.662564359585087],[122.03101180594831,30.662551932660257],[122.03103789680935,30.662546668783897],[122.03106338113834,30.662548995932426],[122.0310869603635,30.66255809225298],[122.03110593664626,30.662573112601454],[122.03111861222835,30.662592528493054],[122.03112358974404,30.66261421631614],[122.03112027142133,30.662636065714754],[122.03110905926039,30.662655682819057]]]}},{"type":"Feature","properties":{"osm_id":"","osm_way_id":"815559865","name":"","type":"","aeroway":"","amenity":"","admin_leve":"","barrier":"","boundary":"","building":"yes","craft":"","geological":"","historic":"","land_area":"","landuse":"","leisure":"","man_made":"","military":"","natural":"","office":"","place":"","shop":"","sport":"","tourism":"","other_tags":"","source_file":"yangshangpolygon.shp","source_crs":"EPSG:4326","target_crs":"BD09","feature_index":8},"geometry":{"type":"Polygon","coordinates":[[[122.0328732003358,30.662317211709578],[122.03300599868484,30.66228693908346],[122.03290302979721,30.661948389263916],[122.03277292903238,30.66198329380463],[122.0328732003358,30.662317211709578]]]}},{"type":"Feature","properties":{"osm_id":"","osm_way_id":"815559866","name":"","type":"","aeroway":"","amenity":"","admin_leve":"","barrier":"","boundary":"","building":"yes","craft":"","geological":"","historic":"","land_area":"","landuse":"","leisure":"","man_made":"","military":"","natural":"","office":"","place":"","shop":"","sport":"","tourism":"","other_tags":"","source_file":"yangshangpolygon.shp","source_crs":"EPSG:4326","target_crs":"BD09","feature_index":9},"geometry":{"type":"Polygon","coordinates":[[[122.03323553928598,30.661975353893137],[122.03462516880664,30.661651654977632],[122.0345797036763,30.661498786984147],[122.0331847767557,30.661833856356143],[122.03323553928598,30.661975353893137]]]}},{"type":"Feature","properties":{"osm_id":"","osm_way_id":"815559867","name":"","type":"","aeroway":"","amenity":"","admin_leve":"","barrier":"","boundary":"","building":"yes","craft":"","geological":"","historic":"","land_area":"","landuse":"","leisure":"","man_made":"","military":"","natural":"","office":"","place":"","shop":"","sport":"","tourism":"","other_tags":"","source_file":"yangshangpolygon.shp","source_crs":"EPSG:4326","target_crs":"BD09","feature_index":10},"geometry":{"type":"Polygon","coordinates":[[[122.02323938824975,30.660866173417713],[122.02348587965386,30.66081253377411],[122.02334428149997,30.6603676641443],[122.02309789303001,30.660421293221585],[122.02323938824975,30.660866173417713]]]}},{"type":"Feature","properties":{"osm_id":"","osm_way_id":"815559868","name":"","type":"","aeroway":"","amenity":"","admin_leve":"","barrier":"","boundary":"","building":"yes","craft":"","geological":"","historic":"","land_area":"","landuse":"","leisure":"","man_made":"","military":"","natural":"","office":"","place":"","shop":"","sport":"","tourism":"","other_tags":"","source_file":"yangshangpolygon.shp","source_crs":"EPSG:4326","target_crs":"BD09","feature_index":11},"geometry":{"type":"Polygon","coordinates":[[[122.0317758688649,30.658468120573172],[122.03198052909872,30.65841871157284],[122.03192399029092,30.658254764608163],[122.03171933213726,30.658304164985086],[122.0317758688649,30.658468120573172]]]}},{"type":"Feature","properties":{"osm_id":"","osm_way_id":"815559869","name":"","type":"","aeroway":"","amenity":"","admin_leve":"","barrier":"","boundary":"","building":"yes","craft":"","geological":"","historic":"","land_area":"","landuse":"","leisure":"","man_made":"","military":"","natural":"","office":"","place":"","shop":"","sport":"","tourism":"","other_tags":"","source_file":"yangshangpolygon.shp","source_crs":"EPSG:4326","target_crs":"BD09","feature_index":12},"geometry":{"type":"Polygon","coordinates":[[[122.04167632310109,30.660546259201556],[122.04192786113822,30.660487766204792],[122.04185055265152,30.660248562307874],[122.04159901908731,30.660307035836723],[122.04167632310109,30.660546259201556]]]}},{"type":"Feature","properties":{"osm_id":"","osm_way_id":"815559870","name":"","type":"","aeroway":"","amenity":"","admin_leve":"","barrier":"","boundary":"","building":"yes","craft":"","geological":"","historic":"","land_area":"","landuse":"","leisure":"","man_made":"","military":"","natural":"","office":"","place":"","shop":"","sport":"","tourism":"","other_tags":"","source_file":"yangshangpolygon.shp","source_crs":"EPSG:4326","target_crs":"BD09","feature_index":13},"geometry":{"type":"Polygon","coordinates":[[[122.0459593746776,30.654746074628903],[122.04648478114622,30.65462327631845],[122.0464158654612,30.654408053122328],[122.04589056799574,30.654530914523814],[122.0459593746776,30.654746074628903]]]}},{"type":"Feature","properties":{"osm_id":"","osm_way_id":"815559871","name":"","type":"","aeroway":"","amenity":"","admin_leve":"","barrier":"","boundary":"","building":"yes","craft":"","geological":"","historic":"","land_area":"","landuse":"","leisure":"","man_made":"","military":"","natural":"","office":"","place":"","shop":"","sport":"","tourism":"","other_tags":"","source_file":"yangshangpolygon.shp","source_crs":"EPSG:4326","target_crs":"BD09","feature_index":14},"geometry":{"type":"Polygon","coordinates":[[[122.04652326408653,30.655042069632017],[122.04701122958612,30.654928197232806],[122.04692069440074,30.654654354957756],[122.04643584789605,30.654767689577536],[122.04652326408653,30.655042069632017]]]}},{"type":"Feature","properties":{"osm_id":"","osm_way_id":"815559872","name":"","type":"","aeroway":"","amenity":"","admin_leve":"","barrier":"","boundary":"","building":"yes","craft":"","geological":"","historic":"","land_area":"","landuse":"","leisure":"","man_made":"","military":"","natural":"","office":"","place":"","shop":"","sport":"","tourism":"","other_tags":"","source_file":"yangshangpolygon.shp","source_crs":"EPSG:4326","target_crs":"BD09","feature_index":15},"geometry":{"type":"Polygon","coordinates":[[[122.04692069440074,30.654654354957756],[122.04701122958612,30.654928197232806],[122.04708025627171,30.655136775860687],[122.04772254752987,30.654980907307095],[122.04756306102412,30.65449869188923],[122.04692069440074,30.654654354957756]]]}},{"type":"Feature","properties":{"osm_id":"","osm_way_id":"822111014","name":"","type":"","aeroway":"","amenity":"","admin_leve":"","barrier":"","boundary":"","building":"","craft":"","geological":"","historic":"","land_area":"","landuse":"grass","leisure":"","man_made":"","military":"","natural":"","office":"","place":"","shop":"","sport":"","tourism":"","other_tags":"","source_file":"yangshangpolygon.shp","source_crs":"EPSG:4326","target_crs":"BD09","feature_index":16},"geometry":{"type":"Polygon","coordinates":[[[122.0352898301154,30.663326593722275],[122.03514566781531,30.66314761880045],[122.03517011703612,30.66309893801584],[122.035229188477,30.663033318322405],[122.0354021156852,30.662934205289172],[122.03587391112818,30.662859854592217],[122.03583493758687,30.662708920257103],[122.03580493967635,30.66258760693247],[122.03578878009581,30.662538187368213],[122.03577013539568,30.6624717317135],[122.03573095211294,30.662331593306117],[122.03570414085569,30.662226022007676],[122.03564254566768,30.6622021137894],[122.0356049866248,30.662146210398667],[122.03542569327989,30.66165004052758],[122.0353614071137,30.661508355861326],[122.03532125117724,30.66145010800417],[122.03528107880622,30.661410362553763],[122.0352221012622,30.661372663739154],[122.03515230597196,30.661353220014387],[122.03507449992624,30.661345266026174],[122.03495646887822,30.661359863045703],[122.03482642446318,30.661390586331915],[122.03490125475724,30.66158865751437],[122.03491460203125,30.66164885348011],[122.03501456529125,30.661925478238995],[122.03502763493688,30.661961063745224],[122.03503580607992,30.661994182005802],[122.0350392853751,30.662017534349573],[122.03504095857838,30.66204726352887],[122.03504053310866,30.66207516379688],[122.03503660484873,30.66210551699953],[122.03502517487857,30.66213646832469],[122.03501475372488,30.662157931209794],[122.03500013109897,30.66218033698707],[122.03497990976845,30.662200465747414],[122.03494728108396,30.66222682601876],[122.03490875370846,30.66225110414163],[122.03488424024702,30.66226237052739],[122.0348612273357,30.662273356957623],[122.03482631464033,30.662282678792366],[122.0347843035837,30.66228960110402],[122.03471588711297,30.66229995691363],[122.0337766646004,30.662423194503315],[122.03370686803666,30.662425570929884],[122.03299889896125,30.66239765481884],[122.03293591024135,30.66240019200563],[122.03283401718153,30.662418230937398],[122.03267173302021,30.66244572756208],[122.03270192733036,30.662552419252474],[122.03263233573405,30.662563540940138],[122.03249195510516,30.66258605432967],[122.03185367360737,30.66270042437406],[122.0313013335502,30.662795310759297],[122.03073565214333,30.662887348020412],[122.02941395403643,30.6630996695552],[122.02887520308046,30.663196172816225],[122.02882853409966,30.66320572440635],[122.02802821103177,30.663369766104676],[122.02785134159616,30.66341485449389],[122.02769755684274,30.663455660586223],[122.02760939817755,30.663507201643558],[122.02756627211166,30.663474775804737],[122.02746753237314,30.66341118333003],[122.02712248173465,30.66353470291723],[122.02718421709999,30.66364101340933],[122.02725309330191,30.663695547307956],[122.02758843332124,30.66392359530296],[122.02766071798717,30.6639688759568],[122.02773041457455,30.664004802623804],[122.0278374934668,30.664020626721804],[122.03183129206985,30.664419436118976],[122.0317869118043,30.664525140787386],[122.03185684664885,30.66456448042213],[122.03202732474452,30.664517012044403],[122.03215793987071,30.66455720664312],[122.03235250635596,30.664630305541987],[122.03249429025212,30.66460072755594],[122.0327130176766,30.664506114340686],[122.03300575606983,30.66439129118976],[122.03315370136889,30.664311423295132],[122.03328624334215,30.664241808640067],[122.033431103715,30.66415385986911],[122.03355751685338,30.664015210017745],[122.03355755863117,30.663970200938795],[122.03360691655455,30.663902016794225],[122.03371173228675,30.663874355657775],[122.03377950631554,30.66389655456066],[122.03383486243135,30.663939773053503],[122.03392425867723,30.66393847425077],[122.03398588477282,30.66390756096002],[122.03404626316194,30.663928837777235],[122.03408131447856,30.663980453856045],[122.03408126276214,30.664036165091446],[122.03412738518547,30.664118945811637],[122.03420441581768,30.6640856418946],[122.03425989834274,30.664104937612382],[122.03429983445531,30.664174420718915],[122.0344077190025,30.66419455328495],[122.03443845585416,30.6642639017888],[122.03443839669443,30.664327514604317],[122.03448770838364,30.664317606487298],[122.03455863393583,30.66429479621301],[122.03461144321828,30.66428893277138],[122.03465529364688,30.664238532825994],[122.03466788704318,30.664246809733704],[122.0346220250283,30.664309384715573],[122.0345976398181,30.664398963738517],[122.03461873623169,30.664404559269155],[122.03466092449393,30.664313427205986],[122.03467420511424,30.664335516563213],[122.03467256498062,30.66437850298462],[122.03466630038164,30.664447330658163],[122.03469705835204,30.664495468187923],[122.03478946656162,30.66449674714732],[122.03488810174976,30.66447159860935],[122.03498678063815,30.664401432741904],[122.03511315827434,30.664339535188667],[122.03524576717653,30.664248501254992],[122.03538145043784,30.664189299828834],[122.03545247154578,30.664076317375812],[122.03553268104118,30.663979254895057],[122.0355327720715,30.66388113510943],[122.03555132806055,30.663825767294394],[122.03548965045655,30.663785146324003],[122.03546513077445,30.663692102567598],[122.03539736016725,30.663643494366053],[122.03534810393566,30.663584526705957],[122.03537895938767,30.66353182598469],[122.03537293164207,30.663452228778056],[122.03534516755576,30.663406849496454],[122.03528668546541,30.663374261902757],[122.0352898301154,30.663326593722275]]]}},{"type":"Feature","properties":{"osm_id":"","osm_way_id":"822111015","name":"","type":"","aeroway":"","amenity":"","admin_leve":"","barrier":"","boundary":"","building":"","craft":"","geological":"","historic":"","land_area":"","landuse":"grass","leisure":"","man_made":"","military":"","natural":"","office":"","place":"","shop":"","sport":"","tourism":"","other_tags":"","source_file":"yangshangpolygon.shp","source_crs":"EPSG:4326","target_crs":"BD09","feature_index":17},"geometry":{"type":"Polygon","coordinates":[[[122.02668129956665,30.66349995131424],[122.02673639509217,30.66354593416619],[122.02680470557264,30.663560265083916],[122.0268637923611,30.66350379909796],[122.02706432111898,30.663559888185937],[122.02712248173465,30.66353470291723],[122.0266350052103,30.663334212153572],[122.0265154347356,30.66301650545799],[122.0264874772659,30.663005155545346],[122.02642666298786,30.662988159642712],[122.02635735491076,30.662975595872318],[122.02630032752198,30.66296897270852],[122.0262430951151,30.662968445180965],[122.02618165972514,30.66297693499265],[122.02613210911633,30.662987058245072],[122.02550569176364,30.66318462054148],[122.02445814671627,30.663522211879492],[122.02359987662244,30.66380768774174],[122.02349869051648,30.663841078960182],[122.02345543979428,30.66385497632671],[122.02340979495042,30.663866422255822],[122.02336605073546,30.663874406523437],[122.02332550615009,30.663877956286363],[122.02327068439362,30.663879404947913],[122.02322055964629,30.6638769504561],[122.02317493224075,30.663870488847532],[122.02311253695238,30.663856071401707],[122.02264046906647,30.663713952435575],[122.02256191520682,30.663683676427127],[122.02249005606734,30.66364863984766],[122.02243397130398,30.6636158381951],[122.02239415774689,30.663587683465718],[122.02225127558371,30.663479310236713],[122.02192285999793,30.66328513462107],[122.02183734599892,30.663227285311383],[122.02177219043038,30.663180574249182],[122.02170265771836,30.6631167639317],[122.02163045929692,30.6630205875845],[122.02157697186367,30.662880903549247],[122.02097888268989,30.66094562494962],[122.02092282695219,30.660773568066222],[122.02082576773714,30.660790261402624],[122.02067778957345,30.660361241781683],[122.02058162691681,30.66038154995542],[122.02167266460403,30.66369994792989],[122.02171430732892,30.663799366547046],[122.02156139673863,30.66396050796732],[122.0215028660841,30.664092274504227],[122.0216992533394,30.6642053326732],[122.02185251081859,30.664209729481158],[122.02197848004364,30.664140818057646],[122.02213899303342,30.664183866077547],[122.02226807980308,30.663985881686664],[122.02234566684571,30.663872712678515],[122.02248170045259,30.66382990221761],[122.02307235690002,30.664005657506785],[122.02319235854318,30.66402999100746],[122.02330159673792,30.664032988506],[122.02338538175897,30.664026145688187],[122.02345269906874,30.66401065340353],[122.02443461613845,30.663697467043473],[122.02636915676456,30.663067148043236],[122.02668129956665,30.66349995131424]]]}},{"type":"Feature","properties":{"osm_id":"","osm_way_id":"822111016","name":"","type":"","aeroway":"","amenity":"","admin_leve":"","barrier":"","boundary":"","building":"","craft":"","geological":"","historic":"","land_area":"","landuse":"grass","leisure":"","man_made":"","military":"","natural":"","office":"","place":"","shop":"","sport":"","tourism":"","other_tags":"","source_file":"yangshangpolygon.shp","source_crs":"EPSG:4326","target_crs":"BD09","feature_index":18},"geometry":{"type":"Polygon","coordinates":[[[122.04925444129324,30.65626340101291],[122.04923452860916,30.656200094315317],[122.04901644809185,30.656322479471463],[122.04840543472426,30.65676318074401],[122.04821152302483,30.656933907930473],[122.04703273451665,30.657758684435603],[122.04636114549693,30.658163275123318],[122.04569561733129,30.658625232635],[122.04542119602625,30.658829742872296],[122.04516567892112,30.658981136125433],[122.04472458166855,30.65923321062456],[122.04394208676592,30.65964955117418],[122.04380535901079,30.659713863008147],[122.04354548704482,30.659790492562582],[122.04225862716339,30.660105880108723],[122.04248688615877,30.660805250037935],[122.04165013945895,30.661156096488426],[122.03998221268024,30.661732220415853],[122.038824215037,30.66207518364617],[122.03733947795985,30.662426749857683],[122.03643114468827,30.662610930123144],[122.03583493758687,30.662708920257103],[122.03587391112818,30.662859854592217],[122.03723625162006,30.66260739230373],[122.0378504684424,30.66247403664989],[122.03915226850194,30.662134774742263],[122.04033369023485,30.66177454418684],[122.04136768573655,30.661420826939718],[122.04232400083555,30.66104472168184],[122.04306937180368,30.660729073862164],[122.04446737452176,30.660099566495127],[122.0454065714379,30.659629563352954],[122.04603097923473,30.65926760781352],[122.04610349277172,30.659343332849325],[122.04622855662956,30.659282767197023],[122.04661778544083,30.659123410782215],[122.0470827079741,30.658896425202293],[122.04731551295801,30.65927710540598],[122.04866877534259,30.65875010525614],[122.0490049633968,30.658685201264056],[122.04948424203064,30.658491674281414],[122.049553498402,30.65845211962834],[122.04960389969109,30.658406673202283],[122.04963434753705,30.65834843727701],[122.0496531764827,30.65826800500941],[122.0496344783741,30.658193703808834],[122.04956665164038,30.658083330757144],[122.04926931306129,30.657829943140403],[122.04947149999299,30.657172294694682],[122.04951468729026,30.656990026683008],[122.04952017607876,30.65690240354726],[122.04949879692514,30.656791692866918],[122.04941543393902,30.656662514141395],[122.04926497584977,30.656512653093582],[122.04920314527527,30.656431858023982],[122.04919245022353,30.656383450699607],[122.04920052161032,30.6563257349383],[122.04925444129324,30.65626340101291]]]}},{"type":"Feature","properties":{"osm_id":"","osm_way_id":"822111017","name":"","type":"","aeroway":"","amenity":"","admin_leve":"","barrier":"","boundary":"","building":"","craft":"","geological":"","historic":"","land_area":"","landuse":"grass","leisure":"","man_made":"","military":"","natural":"","office":"","place":"","shop":"","sport":"","tourism":"","other_tags":"","source_file":"yangshangpolygon.shp","source_crs":"EPSG:4326","target_crs":"BD09","feature_index":19},"geometry":{"type":"Polygon","coordinates":[[[122.04824652166067,30.6560647342475],[122.04898306729622,30.65604101998703],[122.04924630558904,30.6560231495766],[122.04960053738257,30.655768990684475],[122.04973496968657,30.655646352917095],[122.04980014411446,30.655567374995503],[122.04981433066914,30.655515649495804],[122.04981697319293,30.655471836831712],[122.04981099029067,30.655424231595216],[122.04979607991265,30.655374234234376],[122.04977674812335,30.655333242822127],[122.04975720539409,30.65530565432028],[122.04972071063213,30.655273879326003],[122.04967649061682,30.655242609481625],[122.04962193189937,30.6552186473393],[122.04956506405496,30.655197684505108],[122.04950989593924,30.655185119221798],[122.04945522410358,30.65518035235908],[122.04939643380322,30.655183386497715],[122.04935368962767,30.655193811023924],[122.04928605698622,30.655217247643904],[122.04922593828917,30.65525468014463],[122.04914463924233,30.655311119574566],[122.04884762600801,30.655558615682224],[122.04853524274091,30.655858528197083],[122.04824652166067,30.6560647342475]]]}},{"type":"Feature","properties":{"osm_id":"","osm_way_id":"822111018","name":"","type":"","aeroway":"","amenity":"","admin_leve":"","barrier":"","boundary":"","building":"yes","craft":"","geological":"","historic":"","land_area":"","landuse":"","leisure":"","man_made":"","military":"","natural":"","office":"","place":"","shop":"","sport":"","tourism":"","other_tags":"","source_file":"yangshangpolygon.shp","source_crs":"EPSG:4326","target_crs":"BD09","feature_index":20},"geometry":{"type":"Polygon","coordinates":[[[122.03246264338905,30.662390052073032],[122.03251503858257,30.66237827043757],[122.03248971756396,30.662300056896182],[122.03243732251413,30.662311937529697],[122.03246264338905,30.662390052073032]]]}},{"type":"Feature","properties":{"osm_id":"","osm_way_id":"822111019","name":"","type":"","aeroway":"","amenity":"","admin_leve":"","barrier":"","boundary":"","building":"yes","craft":"","geological":"","historic":"","land_area":"","landuse":"","leisure":"","man_made":"","military":"","natural":"","office":"","place":"","shop":"","sport":"","tourism":"","other_tags":"","source_file":"yangshangpolygon.shp","source_crs":"EPSG:4326","target_crs":"BD09","feature_index":21},"geometry":{"type":"Polygon","coordinates":[[[122.03237615689169,30.662185647703918],[122.03244624990921,30.662169446597307],[122.03242012962818,30.662090819018278],[122.03235013690114,30.66210702029687],[122.03237615689169,30.662185647703918]]]}},{"type":"Feature","properties":{"osm_id":"","osm_way_id":"822111020","name":"洋山四期自动化码头","type":"","aeroway":"","amenity":"","admin_leve":"","barrier":"","boundary":"","building":"","craft":"","geological":"","historic":"","land_area":"","landuse":"harbour","leisure":"","man_made":"","military":"","natural":"","office":"","place":"","shop":"","sport":"","tourism":"","other_tags":"\"industrial\"=>\"port\"","source_file":"yangshangpolygon.shp","source_crs":"EPSG:4326","target_crs":"BD09","feature_index":22},"geometry":{"type":"Polygon","coordinates":[[[122.02157697186367,30.662880903549247],[122.02163045929692,30.6630205875845],[122.02170265771836,30.6631167639317],[122.02177219043038,30.663180574249182],[122.02183734599892,30.663227285311383],[122.02192285999793,30.66328513462107],[122.02225127558371,30.663479310236713],[122.02248869430939,30.6633937542282],[122.02326492369806,30.663198532763804],[122.02331461339791,30.663347909958063],[122.02333484045211,30.66339504514672],[122.02335917705301,30.663425462713384],[122.02338741751672,30.663445659676285],[122.02341886123091,30.663457421622116],[122.02345490571967,30.663461277832695],[122.02348905806888,30.663459692735234],[122.02360651471167,30.66343284331867],[122.02364147658677,30.663420170701777],[122.02367394770518,30.663401444301247],[122.02369992649018,30.663384482488453],[122.02387882852659,30.663217170356262],[122.02390691019136,30.663194348849867],[122.0239388829765,30.66317530866243],[122.02396345985666,30.663163116113566],[122.02399033159988,30.663153071401194],[122.02403587953219,30.663140712994803],[122.02557637849847,30.66277774839878],[122.02586527275984,30.662723306632234],[122.02596277227816,30.66270414058852],[122.02607964132315,30.66269405537157],[122.02617722130013,30.662698485690523],[122.02630164906913,30.6627266450771],[122.02689246050133,30.662962835316755],[122.02717970956658,30.663113810652387],[122.02736870797531,30.663224156499226],[122.02751915203145,30.66333244873308],[122.02769755684274,30.663455660586223],[122.02785134159616,30.66341485449389],[122.02802821103177,30.663369766104676],[122.02882853409966,30.66320572440635],[122.02887520308046,30.663196172816225],[122.02941395403643,30.6630996695552],[122.03073565214333,30.662887348020412],[122.0313013335502,30.662795310759297],[122.03185367360737,30.66270042437406],[122.03249195510516,30.66258605432967],[122.03270192733036,30.662552419252474],[122.03267173302021,30.66244572756208],[122.03283401718153,30.662418230937398],[122.03293591024135,30.66240019200563],[122.03299889896125,30.66239765481884],[122.03370686803666,30.662425570929884],[122.0337766646004,30.662423194503315],[122.03471588711297,30.66229995691363],[122.0347843035837,30.66228960110402],[122.03482631464033,30.662282678792366],[122.0348612273357,30.662273356957623],[122.03488424024702,30.66226237052739],[122.03490875370846,30.66225110414163],[122.03494728108396,30.66222682601876],[122.03497990976845,30.662200465747414],[122.03500013109897,30.66218033698707],[122.03501475372488,30.662157931209794],[122.03502517487857,30.66213646832469],[122.03503660484873,30.66210551699953],[122.03504053310866,30.66207516379688],[122.03504095857838,30.66204726352887],[122.0350392853751,30.662017534349573],[122.03503580607992,30.661994182005802],[122.03502763493688,30.661961063745224],[122.03501456529125,30.661925478238995],[122.03491460203125,30.66164885348011],[122.03490125475724,30.66158865751437],[122.03482642446318,30.661390586331915],[122.03495646887822,30.661359863045703],[122.03507449992624,30.661345266026174],[122.03515230597196,30.661353220014387],[122.0352221012622,30.661372663739154],[122.03528107880622,30.661410362553763],[122.03532125117724,30.66145010800417],[122.0353614071137,30.661508355861326],[122.03542569327989,30.66165004052758],[122.0356049866248,30.662146210398667],[122.03564254566768,30.6622021137894],[122.03570414085569,30.662226022007676],[122.03599934579337,30.66221132133294],[122.03628917601266,30.662184973922905],[122.03662456600817,30.662133702587962],[122.03750771415415,30.66195257675592],[122.03846612622681,30.661720812146086],[122.03864601899613,30.661676474482928],[122.03907301264185,30.661560769490887],[122.03984382699844,30.661321273147472],[122.0406765744552,30.661049311394894],[122.04147183718973,30.66075097723917],[122.04174324132448,30.6606398695265],[122.04221356670949,30.660430943665226],[122.04234503278253,30.66037371931352],[122.04225862716339,30.660105880108723],[122.04354548704482,30.659790492562582],[122.04380535901079,30.659713863008147],[122.04394208676592,30.65964955117418],[122.04472458166855,30.65923321062456],[122.04516567892112,30.658981136125433],[122.04542119602625,30.658829742872296],[122.04569561733129,30.658625232635],[122.04591620934794,30.658436686252983],[122.04627681426818,30.658066132792108],[122.04633872044374,30.6580063826088],[122.04633620477823,30.657897952177542],[122.04661214091568,30.657621070016667],[122.04669143596944,30.657513326735057],[122.04678901078209,30.65736830785192],[122.04691494567369,30.657121413607825],[122.04702196010265,30.656962886917096],[122.04713575822176,30.656849470574922],[122.04766853292979,30.656471787137516],[122.04824652166067,30.6560647342475],[122.04853524274091,30.655858528197083],[122.04884762600801,30.655558615682224],[122.04914463924233,30.655311119574566],[122.04922593828917,30.65525468014463],[122.04928605698622,30.655217247643904],[122.04937922744776,30.655119780769],[122.04992028943059,30.654980117225566],[122.05004375974237,30.65529375029241],[122.05035828386539,30.655206703671393],[122.05053243498264,30.655132507339914],[122.0505810423312,30.65494778092471],[122.05057579115852,30.65472623809827],[122.0506329978739,30.654713534281854],[122.05077000237537,30.655071863241414],[122.05101847539365,30.654805490649846],[122.05120605317202,30.65452299795334],[122.0513091968916,30.65428769285811],[122.05105644336298,30.654222169379626],[122.0504529331226,30.654372859899706],[122.05031663415845,30.654012183635846],[122.05085719188756,30.653879208833054],[122.05100185026986,30.6538100900293],[122.05079378215054,30.653584563308797],[122.05048783593878,30.65356960981278],[122.0501514224737,30.653533196876992],[122.04985004148804,30.653505837222273],[122.04948406548239,30.6534876301863],[122.04929708369744,30.65346702446862],[122.04917059181412,30.65345666890733],[122.04906165233967,30.653454395718565],[122.04896744471735,30.653475114699898],[122.04887594148684,30.65350402660667],[122.04879186861774,30.653524728556466],[122.04874542089188,30.653532825711782],[122.04872054584361,30.653531721945527],[122.04869236301059,30.653527616212102],[122.04867552046247,30.653515510027816],[122.04866209245355,30.653497602860437],[122.04864726185795,30.653477394620644],[122.04863051890324,30.653466487971937],[122.04860564575557,30.65346358083289],[122.0485760539685,30.653467073223236],[122.04514207416194,30.654311678001456],[122.04519075534122,30.654486205837337],[122.04464765243331,30.654620029671523],[122.04456838079143,30.654621982438496],[122.04452940118713,30.65461720794648],[122.04450516010507,30.654603195980286],[122.04448904665553,30.65457541676173],[122.04438442765579,30.65430377360409],[122.04433880712553,30.65420203714573],[122.0443065637704,30.65416957833434],[122.0442608776257,30.65415775983126],[122.04421518002884,30.654162143094318],[122.04409962348267,30.654189289405792],[122.03643392719572,30.656028886751297],[122.03165342829796,30.657146321799683],[122.02687119485799,30.658233053380723],[122.02258721744893,30.659211904949647],[122.02086156842223,30.659598267433125],[122.02078387705859,30.6596167814071],[122.02076180388055,30.65962670319825],[122.02075371048123,30.65963402867827],[122.02075240399905,30.659643802484467],[122.02075499064219,30.659654261212506],[122.0208498926408,30.659932690422156],[122.02084987022353,30.65995809576406],[122.02084207211114,30.659970128908206],[122.02041527788528,30.660065146103037],[122.02038312212818,30.660074245514],[122.02036833885347,30.66008252428948],[122.02036433622789,30.660092839158406],[122.02036502480819,30.660104456871895],[122.02047407891342,30.660406608540914],[122.02058162691681,30.66038154995542],[122.02067778957345,30.660361241781683],[122.02082576773714,30.660790261402624],[122.02092282695219,30.660773568066222],[122.02097888268989,30.66094562494962],[122.02157697186367,30.662880903549247]]]}},{"type":"Feature","properties":{"osm_id":"","osm_way_id":"822111021","name":"","type":"","aeroway":"","amenity":"","admin_leve":"","barrier":"","boundary":"","building":"","craft":"","geological":"","historic":"","land_area":"","landuse":"industrial","leisure":"","man_made":"","military":"","natural":"","office":"","place":"","shop":"","sport":"","tourism":"","other_tags":"","source_file":"yangshangpolygon.shp","source_crs":"EPSG:4326","target_crs":"BD09","feature_index":23},"geometry":{"type":"Polygon","coordinates":[[[122.04824652166067,30.6560647342475],[122.04766853292979,30.656471787137516],[122.04713575822176,30.656849470574922],[122.04702196010265,30.656962886917096],[122.04691494567369,30.657121413607825],[122.04678901078209,30.65736830785192],[122.04669143596944,30.657513326735057],[122.04661214091568,30.657621070016667],[122.04633620477823,30.657897952177542],[122.04633872044374,30.6580063826088],[122.04627681426818,30.658066132792108],[122.04591620934794,30.658436686252983],[122.04569561733129,30.658625232635],[122.04636114549693,30.658163275123318],[122.04703273451665,30.657758684435603],[122.04803932306628,30.657053803738467],[122.04821152302483,30.656933907930473],[122.04840543472426,30.65676318074401],[122.04901644809185,30.656322479471463],[122.04923452860916,30.656200094315317],[122.0502846644109,30.655428263747158],[122.05043548314518,30.655289602947622],[122.05053243498264,30.655132507339914],[122.05035828386539,30.655206703671393],[122.05035204155563,30.65523431951705],[122.05013125710592,30.655416970229172],[122.0498862055391,30.655594995856323],[122.04960053738257,30.655768990684475],[122.04924630558904,30.6560231495766],[122.04824652166067,30.6560647342475]]]}},{"type":"Feature","properties":{"osm_id":"","osm_way_id":"822111022","name":"","type":"","aeroway":"","amenity":"","admin_leve":"","barrier":"","boundary":"","building":"","craft":"","geological":"","historic":"","land_area":"","landuse":"grass","leisure":"","man_made":"","military":"","natural":"","office":"","place":"","shop":"","sport":"","tourism":"","other_tags":"","source_file":"yangshangpolygon.shp","source_crs":"EPSG:4326","target_crs":"BD09","feature_index":24},"geometry":{"type":"Polygon","coordinates":[[[122.04960053738257,30.655768990684475],[122.0498862055391,30.655594995856323],[122.05013125710592,30.655416970229172],[122.05035204155563,30.65523431951705],[122.05035828386539,30.655206703671393],[122.05004375974237,30.65529375029241],[122.04992028943059,30.654980117225566],[122.04937922744776,30.655119780769],[122.04928605698622,30.655217247643904],[122.04935368962767,30.655193811023924],[122.04939643380322,30.655183386497715],[122.04945522410358,30.65518035235908],[122.04950989593924,30.655185119221798],[122.04956506405496,30.655197684505108],[122.04962193189937,30.6552186473393],[122.04967649061682,30.655242609481625],[122.04972071063213,30.655273879326003],[122.04975720539409,30.65530565432028],[122.04977674812335,30.655333242822127],[122.04979607991265,30.655374234234376],[122.04981099029067,30.655424231595216],[122.04981697319293,30.655471836831712],[122.04981433066914,30.655515649495804],[122.04980014411446,30.655567374995503],[122.04973496968657,30.655646352917095],[122.04960053738257,30.655768990684475]]]}},{"type":"Feature","properties":{"osm_id":"","osm_way_id":"822111023","name":"","type":"","aeroway":"","amenity":"","admin_leve":"","barrier":"","boundary":"","building":"","craft":"","geological":"","historic":"","land_area":"","landuse":"industrial","leisure":"","man_made":"","military":"","natural":"","office":"","place":"","shop":"","sport":"","tourism":"","other_tags":"","source_file":"yangshangpolygon.shp","source_crs":"EPSG:4326","target_crs":"BD09","feature_index":25},"geometry":{"type":"Polygon","coordinates":[[[122.0496531764827,30.65826800500941],[122.04963434753705,30.65834843727701],[122.04960389969109,30.658406673202283],[122.049553498402,30.65845211962834],[122.04948424203064,30.658491674281414],[122.0490049633968,30.658685201264056],[122.04866877534259,30.65875010525614],[122.04731551295801,30.65927710540598],[122.0470827079741,30.658896425202293],[122.04661778544083,30.659123410782215],[122.04622855662956,30.659282767197023],[122.04610349277172,30.659343332849325],[122.04636857609853,30.65966681900485],[122.0463991287357,30.659695403068103],[122.04643069872598,30.659707285158504],[122.04645415319149,30.659713444912406],[122.04648723851994,30.659712626214844],[122.0465069935644,30.659707573250966],[122.04658502346214,30.659674252260864],[122.047485758799,30.659305067458547],[122.04858232032032,30.658859407420408],[122.0486280694283,30.658846716900857],[122.04868052653227,30.65884902874152],[122.04896831697974,30.658957464008726],[122.04901133863716,30.658971361499198],[122.04905708110127,30.658971353604013],[122.04908939092084,30.658960944522196],[122.04926771945762,30.658881970633022],[122.0513201162076,30.658933202940194],[122.05221781238257,30.65883415155121],[122.05236565888407,30.658616595991024],[122.05226492180492,30.658562734170353],[122.0496531764827,30.65826800500941]]]}},{"type":"Feature","properties":{"osm_id":"","osm_way_id":"822111024","name":"","type":"","aeroway":"","amenity":"","admin_leve":"","barrier":"","boundary":"","building":"yes","craft":"","geological":"","historic":"","land_area":"","landuse":"","leisure":"","man_made":"","military":"","natural":"","office":"","place":"","shop":"","sport":"","tourism":"","other_tags":"","source_file":"yangshangpolygon.shp","source_crs":"EPSG:4326","target_crs":"BD09","feature_index":26},"geometry":{"type":"Polygon","coordinates":[[[122.04898780701691,30.658922954403877],[122.04920115186725,30.65883218509919],[122.04915928207846,30.65875968306655],[122.04894593920883,30.658850543281655],[122.04898780701691,30.658922954403877]]]}},{"type":"Feature","properties":{"osm_id":"","osm_way_id":"822111025","name":"","type":"","aeroway":"","amenity":"","admin_leve":"","barrier":"","boundary":"","building":"yes","craft":"","geological":"","historic":"","land_area":"","landuse":"","leisure":"","man_made":"","military":"","natural":"","office":"","place":"","shop":"","sport":"","tourism":"","other_tags":"","source_file":"yangshangpolygon.shp","source_crs":"EPSG:4326","target_crs":"BD09","feature_index":27},"geometry":{"type":"Polygon","coordinates":[[[122.04747212057636,30.659073498549382],[122.04833570694966,30.65871407352853],[122.04822474611962,30.658518064720354],[122.04736128237451,30.658877491549728],[122.04747212057636,30.659073498549382]]]}},{"type":"Feature","properties":{"osm_id":"","osm_way_id":"822111026","name":"","type":"","aeroway":"","amenity":"","admin_leve":"","barrier":"","boundary":"","building":"","craft":"","geological":"","historic":"","land_area":"","landuse":"grass","leisure":"","man_made":"","military":"","natural":"","office":"","place":"","shop":"","sport":"","tourism":"","other_tags":"","source_file":"yangshangpolygon.shp","source_crs":"EPSG:4326","target_crs":"BD09","feature_index":28},"geometry":{"type":"Polygon","coordinates":[[[122.03560457492223,30.661608388464703],[122.03608792662564,30.66149509237883],[122.03608533738802,30.66148215675412],[122.03593660155599,30.661465758146054],[122.03552786322776,30.66137823102449],[122.03560457492223,30.661608388464703]]]}},{"type":"Feature","properties":{"osm_id":"","osm_way_id":"889454937","name":"","type":"","aeroway":"","amenity":"","admin_leve":"","barrier":"","boundary":"","building":"yes","craft":"","geological":"","historic":"","land_area":"","landuse":"","leisure":"","man_made":"","military":"","natural":"","office":"","place":"","shop":"","sport":"","tourism":"","other_tags":"","source_file":"yangshangpolygon.shp","source_crs":"EPSG:4326","target_crs":"BD09","feature_index":29},"geometry":{"type":"Polygon","coordinates":[[[122.03130843904535,30.663760238609882],[122.03150054031201,30.663768306858938],[122.03150577722819,30.66361796013564],[122.0314157227019,30.663614178605872],[122.03141305432658,30.663689350981457],[122.03131100737338,30.66368516480248],[122.03130843904535,30.663760238609882]]]}},{"type":"Feature","properties":{"osm_id":"","osm_way_id":"889454938","name":"","type":"","aeroway":"","amenity":"","admin_leve":"","barrier":"","boundary":"","building":"yes","craft":"","geological":"","historic":"","land_area":"","landuse":"","leisure":"","man_made":"","military":"","natural":"","office":"","place":"","shop":"","sport":"","tourism":"","other_tags":"","source_file":"yangshangpolygon.shp","source_crs":"EPSG:4326","target_crs":"BD09","feature_index":30},"geometry":{"type":"Polygon","coordinates":[[[122.03236117617244,30.663907185859895],[122.03271939263392,30.663885879101834],[122.03269683442119,30.663739297820975],[122.03233691705913,30.663763672103578],[122.03236117617244,30.663907185859895]]]}}]}