{"type":"FeatureCollection","features":[{"type":"Feature","properties":{"osm_id":"10412415","name":"东海大桥","highway":"motorway","waterway":"","aerialway":"","barrier":"","man_made":"","z_order":19,"other_tags":"\"bridge\"=>\"viaduct\",\"lanes\"=>\"3\",\"layer\"=>\"1\",\"name:en\"=>\"Donghai Bridge\",\"name:zh\"=>\"东海大桥\",\"name:zh-Hans\"=>\"东海大桥\",\"name:zh-Hant\"=>\"東海大橋\",\"name:zh-Latn-pinyin\"=>\"Dōnghǎi Dàqiáo\",\"noref\"=>\"yes\",\"oneway\"=>\"yes\",\"surface\"=>\"aspha","source_file":"yangshanglane.shp","source_crs":"EPSG:4326","target_crs":"BD09","feature_index":1},"geometry":{"type":"LineString","coordinates":[[122.03016899180773,30.663335620170383],[122.0297755082802,30.663397150521085],[122.02908292969846,30.663520312834944],[122.02832954552609,30.66367354887297],[122.02775447765647,30.663803313044806],[122.02715735556615,30.66395376595553],[122.02652579542553,30.664125552776024],[122.02566148893852,30.664379406495023],[122.02499173032972,30.664604953833738],[122.02426115684999,30.664874554931583],[122.02350214181543,30.66517534658181],[122.02275443768013,30.665495165470727],[122.02164503453204,30.666028769944713],[122.0204697201338,30.666657811865413],[122.0197442037801,30.667090712416076],[122.0190584333823,30.66753059825106],[122.01819443704616,30.668121497152004],[122.01754858310022,30.668605354573796],[122.01683197508906,30.66917553062002],[122.01622901070868,30.669708519294137],[122.01541638960359,30.670473799911626],[122.01468084309666,30.671230327134733],[122.0141549897398,30.671822408576478],[122.01241397039803,30.67394240865625],[122.00964157024602,30.677331735873175],[122.0074733686498,30.67995607092675],[122.00616949030405,30.681521282008468],[122.00317666477203,30.685179582697987],[121.99858884284312,30.690744377887263],[121.99782568477319,30.691675008052545],[121.99713900440725,30.69249979502541],[121.99303275286063,30.697497280369284],[121.99226224194528,30.69849593798125],[121.99162213783457,30.699374246800275],[121.99107442406503,30.70017440318034],[121.9904504836268,30.701127236032747],[121.98968706111197,30.702440036237203],[121.98885416546325,30.704018347456355],[121.98831480524275,30.7051647272405],[121.9877279844217,30.70657759707589],[121.9871290416705,30.708278087390326],[121.9868590758891,30.709072836679532],[121.98644942793696,30.71064080254029],[121.98627607937934,30.71132001596743],[121.98607513782667,30.712325225377423],[121.98589001103322,30.713377751463018],[121.98573719448942,30.714521748695237],[121.98564332810386,30.715495864971054],[121.98550962684084,30.718132237678837],[121.98576188022705,30.72833294486583],[121.98590559403526,30.73422584523564],[121.985997991687,30.737942442055232],[121.98602562390306,30.74109761768707],[121.98601127820326,30.74255227887469],[121.98596971285859,30.743485815725457],[121.98593670736783,30.744069833381175],[121.9858666935423,30.745001499901285],[121.98579113440786,30.745780953822496],[121.98567129599628,30.746716924293334],[121.98554307038464,30.747619464707245],[121.98541592712705,30.748351710028498],[121.9852699046007,30.74910795329144],[121.98505932833787,30.75008916576783],[121.98482571453339,30.751058682710465],[121.98453228159441,30.7521741853358],[121.98417947769745,30.753359779056805],[121.98377599988217,30.75457590186802],[121.9833758101082,30.755677208939655],[121.98311541447634,30.75633351644416],[121.98285508058343,30.756941762219995],[121.98223381753213,30.75831368098924],[121.98168759991238,30.75942596958283],[121.98111555022861,30.76053010481754],[121.98079984987724,30.761098585347465],[121.98043548659818,30.761756964762803],[121.97964975447643,30.763101741972825],[121.97524461691695,30.770658255891856],[121.9704361675514,30.778741373587824],[121.96720343884257,30.784169212271518],[121.96326421281093,30.79108316103811],[121.96116982214782,30.794689946757487],[121.95981062386818,30.796992422541454],[121.95635388216631,30.803069727852005],[121.95388959557053,30.807352819282833],[121.94859413160052,30.816490533170818],[121.94550513100323,30.821627038260555],[121.94393600147266,30.82432661557998],[121.94173015139035,30.828134117326034],[121.93989677036808,30.83123319707224],[121.93576250917393,30.838329757724274],[121.93128124675914,30.846078837530428],[121.92803858547634,30.85159854918603],[121.92636817105104,30.85447208485392],[121.92564405042168,30.855619661441754],[121.92498475438651,30.856559494662143],[121.92416892073356,30.857609768269],[121.92334850973853,30.858602538340797],[121.92255013104688,30.85945284848713],[121.92141683850916,30.86059072314525],[121.91909865296856,30.86259700139697],[121.91372930028628,30.867249089492127]]}},{"type":"Feature","properties":{"osm_id":"10412417","name":"东海大桥","highway":"motorway","waterway":"","aerialway":"","barrier":"","man_made":"","z_order":19,"other_tags":"\"bridge\"=>\"viaduct\",\"lanes\"=>\"3\",\"layer\"=>\"1\",\"name:en\"=>\"Donghai Bridge\",\"name:zh\"=>\"东海大桥\",\"name:zh-Hans\"=>\"东海大桥\",\"name:zh-Hant\"=>\"東海大橋\",\"name:zh-Latn-pinyin\"=>\"Dōnghǎi Dàqiáo\",\"noref\"=>\"yes\",\"oneway\"=>\"yes\",\"surface\"=>\"aspha","source_file":"yangshanglane.shp","source_crs":"EPSG:4326","target_crs":"BD09","feature_index":2},"geometry":{"type":"LineString","coordinates":[[121.91820736669268,30.863191316043885],[121.91899268483445,30.862507236473807],[121.92136202235189,30.860492251966832],[121.92249217498536,30.859331302749368],[121.9232625602282,30.858488339363472],[121.92409205315595,30.85750667012274],[121.92485940439894,30.856491581492573],[121.92550388398807,30.855563514083254],[121.92628411611283,30.854344020643556],[121.92793989400198,30.851494149179143],[121.93120745701962,30.846027284849118],[121.93561704325525,30.838312788278436],[121.93974542485843,30.83121215963408],[121.94165959367233,30.82808345373722],[121.94632920364401,30.82004498588567],[121.95324143732826,30.808189934816735],[121.95968426050003,30.796886907562083],[121.96308982331576,30.79101449379005],[121.96707021489956,30.78404113563077],[121.97030071283608,30.778680073696563],[121.97509838146235,30.770611944888483],[121.97955296071967,30.762998706768315],[121.98032484305698,30.76165420356881],[121.98084490456206,30.76073948404958],[121.98116682036718,30.76014688677463],[121.98169556401383,30.75911890549009],[121.98213976296867,30.75819568308804],[121.9825521548617,30.757298000986882],[121.98292010459855,30.75641762954864],[121.983262190002,30.755532497411767],[121.98364944054802,30.75446176181128],[121.98391393411816,30.753695619022988],[121.98421766680737,30.75272623865731],[121.98450235075741,30.751703297288078],[121.98476359350029,30.750703017395182],[121.98496350366229,30.749781972701896],[121.98516635276945,30.748818736828124],[121.98532914223611,30.747899199235437],[121.98547892858451,30.746950139186417],[121.98560046318762,30.745971423087425],[121.9856910237117,30.7451030257849],[121.9857524199056,30.744326833511884],[121.98581492173132,30.74344797269011],[121.98586985699892,30.74255528348912],[121.98587848019947,30.741093003180453],[121.98585957727174,30.738167412733713],[121.98560851225557,30.728332660172306],[121.98553420983981,30.724973388151508],[121.98538208991268,30.71799332931011],[121.98550285438017,30.715451687128894],[121.98558802790649,30.714509364649153],[121.98574039975107,30.71331050502654],[121.98591332631,30.71229004744599],[121.98612720339563,30.711271125689933],[121.98636080417745,30.710302645207612],[121.98670432786632,30.709051359350887],[121.98698149390628,30.708214263161434],[121.9875826745365,30.706524799085525],[121.98814148896392,30.705182062472247],[121.9887649722294,30.703850296138025],[121.9893077087608,30.702819167941485],[121.98995840332343,30.701662247966347],[121.99033293096846,30.70106771958322],[121.99071114964644,30.70046745943518],[121.99131957444186,30.699569908979203],[121.99217297934631,30.69839112704073],[121.99314674591955,30.697142364754807],[121.99634760170146,30.69322385774646],[122.00208825648853,30.68625317552154],[122.0030460913066,30.68506763591971],[122.00816944031739,30.678922609055835],[122.01235408856044,30.673796464397647],[122.01391422425155,30.67189349816004],[122.01431986155812,30.6714347685921],[122.01497100434925,30.67073345532067],[122.01558282228653,30.670128624052353],[122.0161837147685,30.66956987817099],[122.01676688372751,30.669069356294784],[122.01743516122278,30.668513210071755],[122.01810657437653,30.66802612512098],[122.01864452247635,30.667643668270816],[122.01924348194144,30.667254521660634],[122.01993304395278,30.666821699692786],[122.02059421863346,30.666443780884585],[122.02127147967416,30.666074513885526],[122.0220466333421,30.665684821525723],[122.02284248203202,30.665307588973942],[122.02352504955306,30.66502489266912],[122.02411163255147,30.664800049046878],[122.02488016450066,30.664510563778222],[122.02548487020087,30.664313851828677],[122.02597991066067,30.664153300967296],[122.0265157206026,30.664003328712447],[122.02751537903764,30.663739366471123],[122.02834835630208,30.66353526729485],[122.02916848858771,30.663381226720535],[122.0295320719135,30.663307120513895],[122.03011494177316,30.66321245397443]]}},{"type":"Feature","properties":{"osm_id":"230568821","name":"","highway":"","waterway":"","aerialway":"","barrier":"","man_made":"","z_order":0,"other_tags":"\"natural\"=>\"coastline\"","source_file":"yangshanglane.shp","source_crs":"EPSG:4326","target_crs":"BD09","feature_index":3},"geometry":{"type":"LineString","coordinates":[[122.02077099684544,30.664664936851977],[122.02074894380827,30.664652654021697],[122.02073707427253,30.66464049286938],[122.02073189783457,30.664624176521105],[122.02075190755848,30.664579202232847],[122.02075862207921,30.664552042384],[122.02076005853976,30.66451046441957],[122.02076936528663,30.664487161843503],[122.02078616486389,30.66445862116557],[122.0208015677504,30.664428949777395],[122.02082706493842,30.664387995435504],[122.02084984085161,30.664374587874768],[122.02090746709291,30.664354536341975],[122.02097168021551,30.664337427729546],[122.02107393580683,30.66431714288402],[122.02113504524438,30.664309866521155],[122.0212141426299,30.66428507495452],[122.02127577700936,30.664250601718436],[122.02133065564344,30.66418027341784],[122.02138706639654,30.664072969221742],[122.02145896038212,30.66395759675551],[122.0214929701566,30.663889515873795],[122.02151979715033,30.663815078284237],[122.02154133469088,30.663738225860985],[122.021549372228,30.663684187219854],[122.0215392627943,30.66360365124534],[122.02141064734836,30.663190782589762],[122.02109284690737,30.662216984970176],[122.02081066906261,30.661370564302526],[122.02075613776496,30.66128105718162],[122.02067764157778,30.661195528113588],[122.02058706004907,30.661115635313703],[122.02045375511801,30.661028006007705],[122.02034379015042,30.660965588888583],[122.0202050570281,30.66092054340727],[122.02008866888897,30.660896788583496],[122.01996298657842,30.660884129677893],[122.01983060273983,30.66088612387325],[122.01970250768194,30.660893410343732],[122.01956551399763,30.660916201544005],[122.01884985367542,30.66108764653473],[122.01839992402697,30.661183903057964],[122.01692691404224,30.66152502923275],[122.01577524976265,30.661767027368935],[122.01529856348914,30.661867239358354],[122.0152476481645,30.661868407011923],[122.0152088279674,30.661852539997753],[122.01519546758462,30.661833738625205],[122.01519418972279,30.661811805267444],[122.01520489145777,30.661790138397212],[122.01524654665349,30.66176235863214],[122.01534960156853,30.66173104418527],[122.01600574976601,30.661557514060263],[122.0169189804841,30.661356314393554],[122.01801434611075,30.661106127953452],[122.01904551092758,30.660882025370245],[122.01951692786149,30.660767798116776],[122.01994541490437,30.6606617935717],[122.02023739666411,30.66059437716169],[122.02039008296651,30.660555007481666],[122.02043153022532,30.660538609353182],[122.02046239904452,30.6605173787463],[122.02047710373016,30.660485392559377],[122.02047713874722,30.660446084360302],[122.02047407891342,30.660406608540914],[122.02036502480819,30.660104456871895],[122.02036433622789,30.660092839158406],[122.02036833885347,30.66008252428948],[122.02038312212818,30.660074245514],[122.02041527788528,30.660065146103037],[122.02084207211114,30.659970128908206],[122.02084987022353,30.65995809576406],[122.0208498926408,30.659932690422156],[122.02075499064219,30.659654261212506],[122.02075240399905,30.659643802484467],[122.02075371048123,30.65963402867827],[122.02076180388055,30.65962670319825],[122.02078387705859,30.6596167814071],[122.02086156842223,30.659598267433125],[122.02258721744893,30.659211904949647],[122.02687119485799,30.658233053380723],[122.03165342829796,30.657146321799683],[122.03643392719572,30.656028886751297],[122.04409962348267,30.654189289405792],[122.04421518002884,30.654162143094318],[122.0442608776257,30.65415775983126],[122.0443065637704,30.65416957833434],[122.04433880712553,30.65420203714573],[122.04438442765579,30.65430377360409],[122.04448904665553,30.65457541676173],[122.04450516010507,30.654603195980286],[122.04452940118713,30.65461720794648],[122.04456838079143,30.654621982438496],[122.04464765243331,30.654620029671523],[122.04519075534122,30.654486205837337],[122.04514207416194,30.654311678001456],[122.0485760539685,30.653467073223236],[122.04860564575557,30.65346358083289],[122.04863051890324,30.653466487971937],[122.04864726185795,30.653477394620644],[122.04866209245355,30.653497602860437],[122.04867552046247,30.653515510027816],[122.04869236301059,30.653527616212102],[122.04872054584361,30.653531721945527],[122.04874542089188,30.653532825711782],[122.04879186861774,30.653524728556466],[122.04887594148684,30.65350402660667],[122.04896744471735,30.653475114699898],[122.04906165233967,30.653454395718565],[122.04917059181412,30.65345666890733],[122.04929708369744,30.65346702446862],[122.04948406548239,30.6534876301863],[122.04985004148804,30.653505837222273],[122.0501514224737,30.653533196876992],[122.05048783593878,30.65356960981278],[122.05079378215054,30.653584563308797],[122.05090856545036,30.653610138839415]]}},{"type":"Feature","properties":{"osm_id":"552769672","name":"东海大桥","highway":"motorway","waterway":"","aerialway":"","barrier":"","man_made":"","z_order":29,"other_tags":"\"bridge\"=>\"yes\",\"lanes\"=>\"3\",\"layer\"=>\"1\",\"name:en\"=>\"Donghai Bridge\",\"name:zh\"=>\"东海大桥\",\"name:zh-Hans\"=>\"东海大桥\",\"name:zh-Hant\"=>\"東海大橋\",\"name:zh-Latn-pinyin\"=>\"Dōnghǎi Dàqiáo\",\"noref\"=>\"yes\",\"oneway\"=>\"yes\",\"wikidata\"=>\"Q338136\"","source_file":"yangshanglane.shp","source_crs":"EPSG:4326","target_crs":"BD09","feature_index":4},"geometry":{"type":"LineString","coordinates":[[122.04757753163771,30.65787318351423],[122.04905606824056,30.656825085732045],[122.05085094585296,30.655514005996],[122.05553451093634,30.65208421546018],[122.05655811296897,30.651345561972438],[122.0602627048183,30.648645105695373]]}},{"type":"Feature","properties":{"osm_id":"552769673","name":"东海大桥","highway":"motorway","waterway":"","aerialway":"","barrier":"","man_made":"","z_order":9,"other_tags":"\"lanes\"=>\"3\",\"name:en\"=>\"Donghai Bridge\",\"name:zh\"=>\"东海大桥\",\"name:zh-Hans\"=>\"东海大桥\",\"name:zh-Hant\"=>\"東海大橋\",\"name:zh-Latn-pinyin\"=>\"Dōnghǎi Dàqiáo\",\"noref\"=>\"yes\",\"oneway\"=>\"yes\",\"wikidata\"=>\"Q338136\",\"wikipedia\"=>\"zh:东海大","source_file":"yangshanglane.shp","source_crs":"EPSG:4326","target_crs":"BD09","feature_index":5},"geometry":{"type":"LineString","coordinates":[[122.0476740137638,30.65797962973329],[122.04664233322191,30.65867497046508],[122.0454849121016,30.65933247534871],[122.04493569325722,30.659639174911657],[122.04408270130618,30.660071143634504],[122.04318447428469,30.660512306261893],[122.04248688615877,30.660805250037935],[122.04165013945895,30.661156096488426],[122.03998221268024,30.661732220415853],[122.038824215037,30.66207518364617],[122.03733947795985,30.662426749857683],[122.03643114468827,30.662610930123144],[122.03583493758687,30.662708920257103],[122.03509965268663,30.662829428446518]]}},{"type":"Feature","properties":{"osm_id":"552769674","name":"东海大桥","highway":"motorway","waterway":"","aerialway":"","barrier":"","man_made":"","z_order":9,"other_tags":"\"lanes\"=>\"3\",\"name:en\"=>\"Donghai Bridge\",\"name:zh\"=>\"东海大桥\",\"name:zh-Hans\"=>\"东海大桥\",\"name:zh-Hant\"=>\"東海大橋\",\"name:zh-Latn-pinyin\"=>\"Dōnghǎi Dàqiáo\",\"noref\"=>\"yes\",\"oneway\"=>\"yes\",\"wikidata\"=>\"Q338136\",\"wikipedia\"=>\"zh:东海大","source_file":"yangshanglane.shp","source_crs":"EPSG:4326","target_crs":"BD09","feature_index":6},"geometry":{"type":"LineString","coordinates":[[122.03618042035481,30.662528583919105],[122.03642605331403,30.66248994117352],[122.03727774298407,30.66231531174908],[122.03878759060056,30.66195578576117],[122.03993275780863,30.66161994852428],[122.04160878910601,30.66103156371155],[122.04315473785297,30.660379003789625],[122.0446825515833,30.65962391477802],[122.04542416490517,30.65922303850156],[122.04653053902935,30.658563884281836],[122.04757753163771,30.65787318351423]]}},{"type":"Feature","properties":{"osm_id":"737095492","name":"东海大桥","highway":"motorway","waterway":"","aerialway":"","barrier":"","man_made":"","z_order":29,"other_tags":"\"bridge\"=>\"yes\",\"lanes\"=>\"3\",\"layer\"=>\"1\",\"name:en\"=>\"Donghai Bridge\",\"name:zh\"=>\"东海大桥\",\"name:zh-Hans\"=>\"东海大桥\",\"name:zh-Hant\"=>\"東海大橋\",\"name:zh-Latn-pinyin\"=>\"Dōnghǎi Dàqiáo\",\"noref\"=>\"yes\",\"oneway\"=>\"yes\",\"wikidata\"=>\"Q338136\"","source_file":"yangshanglane.shp","source_crs":"EPSG:4326","target_crs":"BD09","feature_index":7},"geometry":{"type":"LineString","coordinates":[[122.06040590299096,30.648737809871577],[122.05765372195494,30.650775508529925],[122.05562401219711,30.652227662893374],[122.05096503528777,30.655657302853673],[122.04862575576809,30.657304180707435],[122.0476740137638,30.65797962973329]]}},{"type":"Feature","properties":{"osm_id":"812687973","name":"","highway":"residential","waterway":"","aerialway":"","barrier":"","man_made":"","z_order":3,"other_tags":"\"oneway\"=>\"yes\"","source_file":"yangshanglane.shp","source_crs":"EPSG:4326","target_crs":"BD09","feature_index":8},"geometry":{"type":"LineString","coordinates":[[122.03509965268663,30.662829428446518],[122.03384716240872,30.663073865769938],[122.03373023967238,30.663107662072875],[122.03362711519091,30.66314445169015],[122.03356218959274,30.66317969895873],[122.03351446534924,30.66321199784872],[122.03344772421195,30.66326571612773],[122.03339758151876,30.66331937907471],[122.0333575436981,30.66336659004565],[122.03331889222434,30.6634286237488],[122.0332829299646,30.66350209918202],[122.03326538161292,30.663557447047054],[122.03325442515708,30.663620395632094],[122.0332452769801,30.663674069372206],[122.0332368156952,30.663741756427445],[122.03322821638817,30.66385045019177],[122.03322196577166,30.66390616790439],[122.03320911173563,30.663966786939753],[122.03318375600715,30.664031617770686],[122.0331610214057,30.664073282776464],[122.03309385560787,30.66415768234141],[122.03299720147015,30.664236927294827],[122.03290067670093,30.664286260399606],[122.03273966622815,30.66433919087483],[122.03262628404437,30.664352234461315],[122.0325169133339,30.6643540283866],[122.03236966444722,30.664347314865214],[122.03225970631269,30.664340876059455],[122.02972760291944,30.664087556255826],[122.02835197004832,30.663948124827034],[122.02819653885476,30.663922131252953],[122.02805192160204,30.663873320560388],[122.02790993875959,30.663787538840996],[122.02783526854458,30.663726720279495],[122.02769303308717,30.663594205452114],[122.02760939817755,30.663507201643558]]}},{"type":"Feature","properties":{"osm_id":"812687975","name":"","highway":"residential","waterway":"","aerialway":"","barrier":"","man_made":"","z_order":3,"other_tags":"\"oneway\"=>\"yes\"","source_file":"yangshanglane.shp","source_crs":"EPSG:4326","target_crs":"BD09","feature_index":9},"geometry":{"type":"LineString","coordinates":[[122.03052163015477,30.663158260147316],[122.03169314258729,30.66291556887113],[122.03309651246029,30.662688804865187]]}},{"type":"Feature","properties":{"osm_id":"812687976","name":"","highway":"residential","waterway":"","aerialway":"","barrier":"","man_made":"","z_order":3,"other_tags":"\"oneway\"=>\"yes\"","source_file":"yangshanglane.shp","source_crs":"EPSG:4326","target_crs":"BD09","feature_index":10},"geometry":{"type":"LineString","coordinates":[[122.03270192733036,30.662552419252474],[122.03291170821652,30.662517546576755],[122.0329947910188,30.6625165179634],[122.03308056180511,30.66252932777567],[122.03317441533844,30.662560758113756],[122.03324945258707,30.662615002963655],[122.03332719887378,30.6626599819492],[122.03340496309092,30.66268655235139],[122.03346934090425,30.66270131602601],[122.03353632966495,30.662704612614856],[122.03380452863993,30.662678557620467],[122.03490976260714,30.662569586835634],[122.03556521247799,30.66254447472141],[122.03578878009581,30.662538187368213],[122.03618042035481,30.662528583919105]]}},{"type":"Feature","properties":{"osm_id":"812687977","name":"","highway":"residential","waterway":"","aerialway":"","barrier":"","man_made":"","z_order":23,"other_tags":"\"bridge\"=>\"yes\",\"layer\"=>\"1\",\"oneway\"=>\"yes\"","source_file":"yangshanglane.shp","source_crs":"EPSG:4326","target_crs":"BD09","feature_index":11},"geometry":{"type":"LineString","coordinates":[[122.03309651246029,30.662688804865187],[122.03501721377914,30.662421121632516]]}},{"type":"Feature","properties":{"osm_id":"812687978","name":"","highway":"residential","waterway":"","aerialway":"","barrier":"","man_made":"","z_order":23,"other_tags":"\"bridge\"=>\"yes\",\"layer\"=>\"1\",\"oneway\"=>\"yes\"","source_file":"yangshanglane.shp","source_crs":"EPSG:4326","target_crs":"BD09","feature_index":12},"geometry":{"type":"LineString","coordinates":[[122.03309651246029,30.662688804865187],[122.03484812246192,30.662386401304733],[122.03501187109984,30.66235753518184]]}},{"type":"Feature","properties":{"osm_id":"812687979","name":"","highway":"residential","waterway":"","aerialway":"","barrier":"","man_made":"","z_order":3,"other_tags":"\"oneway\"=>\"yes\"","source_file":"yangshanglane.shp","source_crs":"EPSG:4326","target_crs":"BD09","feature_index":13},"geometry":{"type":"LineString","coordinates":[[122.03501187109984,30.66235753518184],[122.03512192441886,30.662318619434817],[122.03520250316427,30.662248190509185],[122.03527500470999,30.66215224238791],[122.03532071654848,30.662039728941515],[122.03533154875295,30.66189684247604],[122.03528608858105,30.661732399651807],[122.03522724277985,30.661549271266452],[122.03520588076078,30.661502774139414],[122.03517899482502,30.66148170777429],[122.03513880901012,30.66145806072169],[122.03507980598363,30.661450360880902],[122.0350193919442,30.661455341622126],[122.03497787274381,30.661469779181452],[122.03493223672508,30.661502562961125],[122.03491209774876,30.66154269605569],[122.03490125475724,30.66158865751437],[122.03491460203125,30.66164885348011],[122.03501456529125,30.661925478238995],[122.03502763493688,30.661961063745224],[122.03503580607992,30.661994182005802],[122.0350392853751,30.662017534349573],[122.03504095857838,30.66204726352887],[122.03504053310866,30.66207516379688],[122.03503660484873,30.66210551699953],[122.03502517487857,30.66213646832469],[122.03501475372488,30.662157931209794],[122.03500013109897,30.66218033698707],[122.03497990976845,30.662200465747414],[122.03494728108396,30.66222682601876],[122.03490875370846,30.66225110414163],[122.03488424024702,30.66226237052739],[122.0348612273357,30.662273356957623],[122.03482631464033,30.662282678792366],[122.0347843035837,30.66228960110402],[122.03471588711297,30.66229995691363],[122.0337766646004,30.662423194503315],[122.03370686803666,30.662425570929884],[122.03299889896125,30.66239765481884],[122.03293591024135,30.66240019200563],[122.03283401718153,30.662418230937398]]}},{"type":"Feature","properties":{"osm_id":"812687980","name":"","highway":"service","waterway":"","aerialway":"","barrier":"","man_made":"","z_order":0,"other_tags":"\"oneway\"=>\"yes\"","source_file":"yangshanglane.shp","source_crs":"EPSG:4326","target_crs":"BD09","feature_index":14},"geometry":{"type":"LineString","coordinates":[[122.02352292630908,30.66376506932857],[122.02364386284461,30.663647170867762],[122.02384222778772,30.66348976977686],[122.0240231667532,30.66339000482157],[122.02483411682584,30.663119017822485],[122.02488875831818,30.663104427834064],[122.02524470173267,30.663098745511903],[122.02530612897569,30.66309258408626],[122.02536177372892,30.66307580206792],[122.02543250602282,30.663052220585797],[122.02577977624382,30.662941551549817],[122.02596691287042,30.662871959986116],[122.02604733431284,30.66285235062121],[122.0261417311298,30.66284221638499],[122.02624440366016,30.662848944528527],[122.02633667989024,30.662866065164373],[122.02642815045839,30.66289136741505],[122.02655995128542,30.66294336007007]]}},{"type":"Feature","properties":{"osm_id":"812687982","name":"","highway":"residential","waterway":"","aerialway":"","barrier":"","man_made":"","z_order":3,"other_tags":"","source_file":"yangshanglane.shp","source_crs":"EPSG:4326","target_crs":"BD09","feature_index":15},"geometry":{"type":"LineString","coordinates":[[122.02760939817755,30.663507201643558],[122.02769755684274,30.663455660586223]]}},{"type":"Feature","properties":{"osm_id":"812687983","name":"","highway":"residential","waterway":"","aerialway":"","barrier":"","man_made":"","z_order":3,"other_tags":"\"oneway\"=>\"yes\"","source_file":"yangshanglane.shp","source_crs":"EPSG:4326","target_crs":"BD09","feature_index":16},"geometry":{"type":"LineString","coordinates":[[122.03263233573405,30.662563540940138],[122.03270192733036,30.662552419252474]]}},{"type":"Feature","properties":{"osm_id":"812687985","name":"","highway":"residential","waterway":"","aerialway":"","barrier":"","man_made":"","z_order":3,"other_tags":"\"oneway\"=>\"yes\"","source_file":"yangshanglane.shp","source_crs":"EPSG:4326","target_crs":"BD09","feature_index":17},"geometry":{"type":"LineString","coordinates":[[122.03263233573405,30.662563540940138],[122.03260074312095,30.66245582560044]]}},{"type":"Feature","properties":{"osm_id":"812687986","name":"","highway":"service","waterway":"","aerialway":"","barrier":"","man_made":"","z_order":0,"other_tags":"\"oneway\"=>\"yes\"","source_file":"yangshanglane.shp","source_crs":"EPSG:4326","target_crs":"BD09","feature_index":18},"geometry":{"type":"LineString","coordinates":[[122.03237012860568,30.662437507725397],[122.0324720146255,30.66241840524489],[122.03258459510657,30.66240396258132]]}},{"type":"Feature","properties":{"osm_id":"812687987","name":"","highway":"service","waterway":"","aerialway":"","barrier":"","man_made":"","z_order":0,"other_tags":"\"oneway\"=>\"yes\"","source_file":"yangshanglane.shp","source_crs":"EPSG:4326","target_crs":"BD09","feature_index":19},"geometry":{"type":"LineString","coordinates":[[122.03258459510657,30.66240396258132],[122.0326529869138,30.662392324726614]]}},{"type":"Feature","properties":{"osm_id":"812687988","name":"","highway":"residential","waterway":"","aerialway":"","barrier":"","man_made":"","z_order":3,"other_tags":"\"oneway\"=>\"yes\"","source_file":"yangshanglane.shp","source_crs":"EPSG:4326","target_crs":"BD09","feature_index":20},"geometry":{"type":"LineString","coordinates":[[122.03283401718153,30.662418230937398],[122.03267173302021,30.66244572756208],[122.03260074312095,30.66245582560044]]}},{"type":"Feature","properties":{"osm_id":"812687989","name":"","highway":"service","waterway":"","aerialway":"","barrier":"","man_made":"","z_order":0,"other_tags":"","source_file":"yangshanglane.shp","source_crs":"EPSG:4326","target_crs":"BD09","feature_index":21},"geometry":{"type":"LineString","coordinates":[[122.03238479097558,30.66247354657813],[122.03237012860568,30.662437507725397]]}},{"type":"Feature","properties":{"osm_id":"812687991","name":"","highway":"service","waterway":"","aerialway":"","barrier":"","man_made":"","z_order":0,"other_tags":"\"oneway\"=>\"yes\"","source_file":"yangshanglane.shp","source_crs":"EPSG:4326","target_crs":"BD09","feature_index":22},"geometry":{"type":"LineString","coordinates":[[122.03254184851566,30.662249461560773],[122.03247777733328,30.66201920836939],[122.0325393740898,30.662002868977194],[122.0326529869138,30.662392324726614]]}},{"type":"Feature","properties":{"osm_id":"812687992","name":"","highway":"service","waterway":"","aerialway":"","barrier":"","man_made":"","z_order":0,"other_tags":"\"oneway\"=>\"yes\"","source_file":"yangshanglane.shp","source_crs":"EPSG:4326","target_crs":"BD09","feature_index":23},"geometry":{"type":"LineString","coordinates":[[122.03260074312095,30.66245582560044],[122.03253746226332,30.662454537761647],[122.03248537665417,30.66245552280366],[122.03238479097558,30.66247354657813]]}},{"type":"Feature","properties":{"osm_id":"812687993","name":"","highway":"service","waterway":"","aerialway":"","barrier":"","man_made":"","z_order":0,"other_tags":"","source_file":"yangshanglane.shp","source_crs":"EPSG:4326","target_crs":"BD09","feature_index":24},"geometry":{"type":"LineString","coordinates":[[122.03237012860568,30.662437507725397],[122.03223927268819,30.661998142840382],[122.03220389295593,30.6618792551701],[122.03218754857414,30.661824283339154]]}},{"type":"Feature","properties":{"osm_id":"812687994","name":"","highway":"residential","waterway":"","aerialway":"","barrier":"","man_made":"","z_order":3,"other_tags":"","source_file":"yangshanglane.shp","source_crs":"EPSG:4326","target_crs":"BD09","feature_index":25},"geometry":{"type":"LineString","coordinates":[[122.02769755684274,30.663455660586223],[122.02785134159616,30.66341485449389],[122.02802821103177,30.663369766104676],[122.02882853409966,30.66320572440635],[122.02887520308046,30.663196172816225],[122.02941395403643,30.6630996695552],[122.03073565214333,30.662887348020412],[122.0313013335502,30.662795310759297],[122.03185367360737,30.66270042437406],[122.03249195510516,30.66258605432967],[122.03263233573405,30.662563540940138]]}},{"type":"Feature","properties":{"osm_id":"812687995","name":"","highway":"residential","waterway":"","aerialway":"","barrier":"","man_made":"","z_order":3,"other_tags":"\"oneway\"=>\"yes\"","source_file":"yangshanglane.shp","source_crs":"EPSG:4326","target_crs":"BD09","feature_index":26},"geometry":{"type":"LineString","coordinates":[[122.02769755684274,30.663455660586223],[122.02779944961952,30.66356961052999],[122.02794177626402,30.663713620759765],[122.02799738108655,30.66375807376721],[122.02804570686575,30.66378788550408],[122.0281134101481,30.66382235888942],[122.0281751295153,30.663846215681186],[122.02824484844312,30.663863017432252],[122.02834743857647,30.66387882564887],[122.02849968490158,30.66389494408917],[122.0297321736821,30.664007819550214],[122.03065677870724,30.664097571642824],[122.0322373794075,30.664270406903682],[122.03244569824837,30.664285597478305],[122.03256006241678,30.664287888439173],[122.03263964339597,30.66428452763884],[122.0327210378918,30.664267286998836],[122.03279223801968,30.664247883454475],[122.03287394758107,30.664216634919256],[122.03292696398513,30.66418604188649],[122.03297858936544,30.6641466234755],[122.03302551845717,30.664104730831557],[122.03307245655722,30.66405353457517],[122.03310419906288,30.66400110565867],[122.0331235467314,30.6639457873585],[122.03313460380514,30.663882041277898],[122.03313706388741,30.66381676447793],[122.03313031800272,30.66375974988807],[122.03311737595745,30.663699840625394],[122.0330941441956,30.663630973000192],[122.03306090305227,30.663574455312915],[122.03297512879116,30.663457721716924],[122.03287602051765,30.663382386430257],[122.03276880540497,30.663318420641872],[122.03262937796197,30.663279350466695],[122.03237197051097,30.66326141602974],[122.03157036182475,30.663278544574016],[122.03081566419242,30.66325838423907]]}},{"type":"Feature","properties":{"osm_id":"812687996","name":"","highway":"service","waterway":"","aerialway":"","barrier":"","man_made":"","z_order":0,"other_tags":"\"oneway\"=>\"yes\"","source_file":"yangshanglane.shp","source_crs":"EPSG:4326","target_crs":"BD09","feature_index":27},"geometry":{"type":"LineString","coordinates":[[122.02760939817755,30.663507201643558],[122.02756627211166,30.663474775804737],[122.02746753237314,30.66341118333003],[122.02656176435467,30.663035415863444],[122.0265154347356,30.66301650545799],[122.0264874772659,30.663005155545346],[122.02642666298786,30.662988159642712],[122.02635735491076,30.662975595872318],[122.02630032752198,30.66296897270852],[122.0262430951151,30.662968445180965],[122.02618165972514,30.66297693499265],[122.02613210911633,30.662987058245072],[122.02550569176364,30.66318462054148],[122.02445814671627,30.663522211879492],[122.02359987662244,30.66380768774174],[122.02349869051648,30.663841078960182],[122.02345543979428,30.66385497632671],[122.02340979495042,30.663866422255822],[122.02336605073546,30.663874406523437],[122.02332550615009,30.663877956286363],[122.02327068439362,30.663879404947913],[122.02322055964629,30.6638769504561],[122.02317493224075,30.663870488847532],[122.02311253695238,30.663856071401707],[122.02264046906647,30.663713952435575],[122.02256191520682,30.663683676427127],[122.02249005606734,30.66364863984766],[122.02243397130398,30.6636158381951],[122.02239415774689,30.663587683465718],[122.02225127558371,30.663479310236713]]}},{"type":"Feature","properties":{"osm_id":"812687997","name":"","highway":"service","waterway":"","aerialway":"","barrier":"","man_made":"","z_order":0,"other_tags":"","source_file":"yangshanglane.shp","source_crs":"EPSG:4326","target_crs":"BD09","feature_index":28},"geometry":{"type":"LineString","coordinates":[[122.02972760291944,30.664087556255826],[122.0297321736821,30.664007819550214]]}},{"type":"Feature","properties":{"osm_id":"812687998","name":"","highway":"service","waterway":"","aerialway":"","barrier":"","man_made":"","z_order":0,"other_tags":"","source_file":"yangshanglane.shp","source_crs":"EPSG:4326","target_crs":"BD09","feature_index":29},"geometry":{"type":"LineString","coordinates":[[122.0297321736821,30.664007819550214],[122.02975240288431,30.663745019149857],[122.02976054098393,30.663697552317014],[122.02977926003156,30.663662374623986],[122.02980797408372,30.663624872167336],[122.02984107734997,30.663595748163957],[122.02988156967159,30.663572954535308],[122.02992415137511,30.663560298638888],[122.02996352821708,30.663555587178973],[122.03000459983048,30.663555505293377],[122.03007164892666,30.66356087635573],[122.03018196349,30.66357309716112],[122.03056957732392,30.663616479987905],[122.03066980851754,30.663626090691352],[122.03077404093479,30.66363356163184],[122.03111783213326,30.663655847447696]]}},{"type":"Feature","properties":{"osm_id":"812687999","name":"","highway":"service","waterway":"","aerialway":"","barrier":"","man_made":"","z_order":0,"other_tags":"","source_file":"yangshanglane.shp","source_crs":"EPSG:4326","target_crs":"BD09","feature_index":30},"geometry":{"type":"LineString","coordinates":[[122.02882853409966,30.66320572440635],[122.02881231116625,30.663137313412534],[122.02878026060694,30.663005199166303],[122.02881247278269,30.662961877811995],[122.02888483095595,30.66294019187444],[122.0296702745109,30.66275805199286]]}},{"type":"Feature","properties":{"osm_id":"812688000","name":"","highway":"service","waterway":"","aerialway":"","barrier":"","man_made":"","z_order":0,"other_tags":"\"oneway\"=>\"yes\"","source_file":"yangshanglane.shp","source_crs":"EPSG:4326","target_crs":"BD09","feature_index":31},"geometry":{"type":"LineString","coordinates":[[122.02225127558371,30.663479310236713],[122.02243869688586,30.66358053102606],[122.02250127147015,30.663613770821552],[122.02257303304836,30.6636464045314],[122.02263960759004,30.66367382523169],[122.02274831337418,30.663707839445863],[122.02303840644664,30.663790793688204],[122.02311877051687,30.663810092567783],[122.02316199979691,30.6638181049476],[122.02320473134766,30.66382460584769],[122.02323678102951,30.663828480889233],[122.02326953235719,30.66382956968713],[122.02330148809612,30.663827240623892],[122.02333574295305,30.663822358888268],[122.02337199812742,30.663814117943843],[122.02341404604712,30.66380479772268],[122.02352292630908,30.66376506932857],[122.02461634281694,30.663404231129697],[122.02603655887195,30.662948258339195],[122.02610898985138,30.66292928825921],[122.02616923014646,30.662916476154244],[122.02621538243697,30.662909085535894],[122.02627212142886,30.662902902672005],[122.02632685835738,30.662901879920433],[122.02638418722151,30.662906707830572],[122.02642893056424,30.662911987281028],[122.02647277159221,30.662921148868996],[122.02655995128542,30.66294336007007]]}},{"type":"Feature","properties":{"osm_id":"812688001","name":"","highway":"service","waterway":"","aerialway":"","barrier":"","man_made":"","z_order":0,"other_tags":"\"oneway\"=>\"yes\"","source_file":"yangshanglane.shp","source_crs":"EPSG:4326","target_crs":"BD09","feature_index":32},"geometry":{"type":"LineString","coordinates":[[122.02655995128542,30.66294336007007],[122.02751915203145,30.66333244873308],[122.02769755684274,30.663455660586223]]}},{"type":"Feature","properties":{"osm_id":"812688002","name":"","highway":"service","waterway":"","aerialway":"","barrier":"","man_made":"","z_order":0,"other_tags":"","source_file":"yangshanglane.shp","source_crs":"EPSG:4326","target_crs":"BD09","feature_index":33},"geometry":{"type":"LineString","coordinates":[[122.0296702745109,30.66275805199286],[122.02968912390084,30.66268917029886],[122.02976681034244,30.662642131700718],[122.03174559082385,30.662184061405892],[122.03183943590531,30.66220178534676],[122.03189295675828,30.66226496313039],[122.0319543530778,30.662570518338622],[122.03175859234952,30.662613566333704],[122.02978802308117,30.66293787046677],[122.02973448830778,30.662909220098854],[122.0296702745109,30.66275805199286]]}},{"type":"Feature","properties":{"osm_id":"812688003","name":"","highway":"service","waterway":"","aerialway":"","barrier":"","man_made":"","z_order":0,"other_tags":"\"oneway\"=>\"yes\"","source_file":"yangshanglane.shp","source_crs":"EPSG:4326","target_crs":"BD09","feature_index":34},"geometry":{"type":"LineString","coordinates":[[122.03238479097558,30.66247354657813],[122.0322574046983,30.66250384084578]]}},{"type":"Feature","properties":{"osm_id":"812688004","name":"","highway":"service","waterway":"","aerialway":"","barrier":"","man_made":"","z_order":0,"other_tags":"\"oneway\"=>\"yes\"","source_file":"yangshanglane.shp","source_crs":"EPSG:4326","target_crs":"BD09","feature_index":35},"geometry":{"type":"LineString","coordinates":[[122.0322574046983,30.66250384084578],[122.03237012860568,30.662437507725397]]}},{"type":"Feature","properties":{"osm_id":"812688005","name":"","highway":"service","waterway":"","aerialway":"","barrier":"","man_made":"","z_order":0,"other_tags":"","source_file":"yangshanglane.shp","source_crs":"EPSG:4326","target_crs":"BD09","feature_index":36},"geometry":{"type":"LineString","coordinates":[[122.0322574046983,30.66250384084578],[122.0319543530778,30.662570518338622]]}},{"type":"Feature","properties":{"osm_id":"812688006","name":"","highway":"service","waterway":"","aerialway":"","barrier":"","man_made":"","z_order":0,"other_tags":"","source_file":"yangshanglane.shp","source_crs":"EPSG:4326","target_crs":"BD09","feature_index":37},"geometry":{"type":"LineString","coordinates":[[122.02225127558371,30.663479310236713],[122.02248869430939,30.6633937542282],[122.02326492369806,30.663198532763804]]}},{"type":"Feature","properties":{"osm_id":"812688007","name":"","highway":"service","waterway":"","aerialway":"","barrier":"","man_made":"","z_order":0,"other_tags":"\"oneway\"=>\"yes\"","source_file":"yangshanglane.shp","source_crs":"EPSG:4326","target_crs":"BD09","feature_index":38},"geometry":{"type":"LineString","coordinates":[[122.02326492369806,30.663198532763804],[122.02311544582109,30.66330250984485],[122.02306048056398,30.663352162022974],[122.02302509378741,30.66339412470585],[122.02300099032321,30.663436225236502],[122.02298396962667,30.663485676791613],[122.02297954381076,30.663520591067297],[122.02298200120431,30.66356265230816],[122.02298955338104,30.663602220588366],[122.02300988173714,30.663647159784016],[122.02303800627814,30.663683861522177],[122.02307202932738,30.663712885675444],[122.02310695566429,30.663737027372097],[122.0231354978735,30.663754232611975],[122.0231806111445,30.663776587573107],[122.0232157491472,30.66378812956696],[122.02325448370391,30.663797846322534],[122.02329012747536,30.66380259649393],[122.02332786928451,30.663806290018307],[122.0233663123126,30.66380769722517],[122.02341404604712,30.66380479772268]]}},{"type":"Feature","properties":{"osm_id":"812688008","name":"","highway":"residential","waterway":"","aerialway":"","barrier":"","man_made":"","z_order":3,"other_tags":"\"oneway\"=>\"yes\"","source_file":"yangshanglane.shp","source_crs":"EPSG:4326","target_crs":"BD09","feature_index":39},"geometry":{"type":"LineString","coordinates":[[122.04923452860916,30.656200094315317],[122.04903247047744,30.656356984716844],[122.0489598767917,30.65644251357827],[122.04891406491248,30.656530236611957],[122.04890054911414,30.65662255794215],[122.04891662443758,30.65671487800113],[122.04897843007035,30.656820996710877],[122.04906440592407,30.656934108428857]]}},{"type":"Feature","properties":{"osm_id":"812688010","name":"","highway":"residential","waterway":"","aerialway":"","barrier":"","man_made":"","z_order":3,"other_tags":"\"oneway\"=>\"yes\"","source_file":"yangshanglane.shp","source_crs":"EPSG:4326","target_crs":"BD09","feature_index":40},"geometry":{"type":"LineString","coordinates":[[122.04906440592407,30.656934108428857],[122.04915306515375,30.65707951890208],[122.04922556134022,30.65724103082682],[122.04921736289371,30.657451080134425],[122.04915802355704,30.657635740149058],[122.04903679490491,30.657815708124065],[122.04887257648778,30.657947351656894],[122.048705694204,30.65803265704328],[122.04822639590634,30.658228303065528],[122.0466607181184,30.65886565356783],[122.0463029685506,30.659021710073368],[122.04597744332494,30.659156926382412],[122.04574188640674,30.659256719194428],[122.04547714448955,30.659389560563106],[122.04494759795489,30.659664128341444],[122.04408270130618,30.660071143634504]]}},{"type":"Feature","properties":{"osm_id":"812688011","name":"","highway":"residential","waterway":"","aerialway":"","barrier":"","man_made":"","z_order":3,"other_tags":"\"oneway\"=>\"yes\"","source_file":"yangshanglane.shp","source_crs":"EPSG:4326","target_crs":"BD09","feature_index":41},"geometry":{"type":"LineString","coordinates":[[122.03490976260714,30.662569586835634],[122.03556715900923,30.66249418944396],[122.03577013539568,30.6624717317135],[122.03601523817136,30.662444574117963],[122.03635681576587,30.662390261099166],[122.03680159067923,30.66230898445464],[122.03724981595646,30.66221736649197],[122.03803639105557,30.662048487290328],[122.03878278138576,30.66185101436572],[122.03992955228604,30.66151129621006],[122.04042659453256,30.66134255523696],[122.04092399416017,30.661168473338368],[122.0412610778673,30.661037122140804],[122.04166452448412,30.660861739849434],[122.0420440599328,30.660695129708216],[122.04259778828771,30.660451894145382],[122.04320263921545,30.66013713190549],[122.04347687437654,30.659997959473817],[122.04403872235149,30.65971705033068],[122.0449933889224,30.659215815449738],[122.04541836679148,30.65897286388136],[122.04564191274227,30.658832300927862],[122.04609365049448,30.65854803297188],[122.04635729562327,30.658329501579047]]}},{"type":"Feature","properties":{"osm_id":"812688012","name":"","highway":"residential","waterway":"","aerialway":"","barrier":"","man_made":"","z_order":3,"other_tags":"\"oneway\"=>\"yes\"","source_file":"yangshanglane.shp","source_crs":"EPSG:4326","target_crs":"BD09","feature_index":42},"geometry":{"type":"LineString","coordinates":[[122.04635729562327,30.658329501579047],[122.04659148659226,30.65810162786426],[122.04703273451665,30.657758684435603],[122.04803932306628,30.657053803738467],[122.04821152302483,30.656933907930473],[122.04846730631301,30.65677941171343],[122.04857486096643,30.65674024108307],[122.04870135154604,30.656730968712672],[122.0488196888546,30.656760988403615],[122.04890581281771,30.656811800199826],[122.04906440592407,30.656934108428857]]}},{"type":"Feature","properties":{"osm_id":"812688013","name":"","highway":"residential","waterway":"","aerialway":"","barrier":"","man_made":"","z_order":3,"other_tags":"\"oneway\"=>\"yes\"","source_file":"yangshanglane.shp","source_crs":"EPSG:4326","target_crs":"BD09","feature_index":43},"geometry":{"type":"LineString","coordinates":[[122.04821152302483,30.656933907930473],[122.04840543472426,30.65676318074401],[122.04901644809185,30.656322479471463],[122.04923452860916,30.656200094315317]]}},{"type":"Feature","properties":{"osm_id":"812688014","name":"","highway":"residential","waterway":"","aerialway":"","barrier":"","man_made":"","z_order":3,"other_tags":"\"oneway\"=>\"yes\"","source_file":"yangshanglane.shp","source_crs":"EPSG:4326","target_crs":"BD09","feature_index":44},"geometry":{"type":"LineString","coordinates":[[122.03501721377914,30.662421121632516],[122.03553508208023,30.662350736874785],[122.03573095211294,30.662331593306117],[122.03611731194975,30.662293637060507],[122.03654402947122,30.662243541385216],[122.03704325652812,30.662154932604818],[122.03753174320839,30.66204747046949],[122.03847143860214,30.661822389638797],[122.03924483451434,30.661610969331935],[122.03995118906006,30.661386865959233],[122.04052604887777,30.661197974690044],[122.04103818031909,30.661022261506858],[122.04189634723427,30.660673281468952],[122.04201457701144,30.660623407825362],[122.04246346977838,30.66044181889646],[122.04347687437654,30.659997959473817]]}},{"type":"Feature","properties":{"osm_id":"812688979","name":"","highway":"residential","waterway":"","aerialway":"","barrier":"","man_made":"","z_order":3,"other_tags":"","source_file":"yangshanglane.shp","source_crs":"EPSG:4326","target_crs":"BD09","feature_index":45},"geometry":{"type":"LineString","coordinates":[[122.04923452860916,30.656200094315317],[122.0502846644109,30.655428263747158],[122.05043548314518,30.655289602947622],[122.05053243498264,30.655132507339914],[122.0505810423312,30.65494778092471],[122.05057579115852,30.65472623809827],[122.0504529331226,30.654372859899706],[122.05031663415845,30.654012183635846],[122.05019750039457,30.653640661899704]]}},{"type":"Feature","properties":{"osm_id":"812688981","name":"","highway":"service","waterway":"","aerialway":"","barrier":"","man_made":"","z_order":0,"other_tags":"\"oneway\"=>\"yes\"","source_file":"yangshanglane.shp","source_crs":"EPSG:4326","target_crs":"BD09","feature_index":46},"geometry":{"type":"LineString","coordinates":[[122.04564191274227,30.658832300927862],[122.0460210047872,30.658508614423138],[122.04619328362304,30.658329064302592],[122.04636114549693,30.658163275123318],[122.04657547100888,30.657951557290406],[122.04723750081205,30.65738046506732],[122.0480852456751,30.65682068946419],[122.04869088625243,30.65639869199009],[122.04924630558904,30.6560231495766],[122.04960053738257,30.655768990684475]]}},{"type":"Feature","properties":{"osm_id":"812688982","name":"","highway":"service","waterway":"","aerialway":"","barrier":"","man_made":"","z_order":0,"other_tags":"\"oneway\"=>\"yes\"","source_file":"yangshanglane.shp","source_crs":"EPSG:4326","target_crs":"BD09","feature_index":47},"geometry":{"type":"LineString","coordinates":[[122.02326492369806,30.663198532763804],[122.02334717148601,30.66312584419655],[122.02353454436205,30.663079460238773],[122.02583337126599,30.66254953288121],[122.02599949458141,30.662522829150543],[122.02613343630775,30.66252088118645],[122.02625927698249,30.662532567556717],[122.02637182021168,30.662560188139967],[122.0270091752009,30.662808058391406],[122.02723688397583,30.662858551972715],[122.02738690644762,30.662879928231778],[122.0275074815715,30.662879926932938],[122.0276414574903,30.662866268386516],[122.02782910479033,30.662828306417207],[122.03218754857414,30.661824283339154],[122.03480638064732,30.661214671709825],[122.03496473205117,30.661179936549225],[122.0351095673783,30.66116570168781],[122.03525178953252,30.66116991781643],[122.03538849978126,30.661190246780905],[122.0358874305387,30.661305192425946],[122.03606456472097,30.661332860817797],[122.03614768521379,30.661343215109873],[122.0362094075233,30.66134399251409],[122.0363381669064,30.661334000811955],[122.03659582445829,30.66128176758614],[122.03837693111939,30.66085588618749],[122.0412858978031,30.66015402506616],[122.04322187305492,30.659682645838195],[122.04354705912297,30.659596759385575],[122.04374872517734,30.659510122676],[122.04406860388714,30.659347918620632],[122.04485393037463,30.65892448643463],[122.04520619622679,30.658718132440608],[122.04539724521514,30.658589605364693],[122.04560437506275,30.658419585706195],[122.0458734275816,30.65817349777177],[122.04615595516756,30.657895065572312],[122.04631750768006,30.657717763503598],[122.04647360653404,30.657473506112524],[122.0465947773251,30.65727995368994],[122.04677263767557,30.65691567135235],[122.0469045496085,30.656712900748207]]}},{"type":"Feature","properties":{"osm_id":"812688983","name":"","highway":"service","waterway":"","aerialway":"","barrier":"","man_made":"","z_order":0,"other_tags":"\"oneway\"=>\"yes\"","source_file":"yangshanglane.shp","source_crs":"EPSG:4326","target_crs":"BD09","feature_index":48},"geometry":{"type":"LineString","coordinates":[[122.0469045496085,30.656712900748207],[122.04685628382346,30.65688364069206],[122.04684522283416,30.65692282658333],[122.04675626907817,30.657192598116595],[122.04663777084647,30.65742318515128],[122.04647081015476,30.657702049950363],[122.04633620477823,30.657897952177542]]}},{"type":"Feature","properties":{"osm_id":"812688984","name":"","highway":"service","waterway":"","aerialway":"","barrier":"","man_made":"","z_order":0,"other_tags":"","source_file":"yangshanglane.shp","source_crs":"EPSG:4326","target_crs":"BD09","feature_index":49},"geometry":{"type":"LineString","coordinates":[[122.0469045496085,30.656712900748207],[122.04697724127767,30.656590717045923],[122.04708763129946,30.656473198587936],[122.04734057156332,30.656282084843067],[122.04803762790146,30.65578901540123],[122.04809142197941,30.655740548567007],[122.04811302440355,30.65568985383109],[122.04812118413842,30.65564364943291],[122.04812654816251,30.65558133909859],[122.0480594921907,30.65540124391715],[122.04787148358531,30.654964867373938],[122.04776948592597,30.654708596907447],[122.04771316601733,30.654521587111507],[122.04757893711725,30.654048304535127],[122.04754403962181,30.654048257643954],[122.04445399474683,30.654812315128016],[122.04439218912202,30.654779724484424],[122.04430367916812,30.654546156337947]]}},{"type":"Feature","properties":{"osm_id":"812688985","name":"","highway":"service","waterway":"","aerialway":"","barrier":"","man_made":"","z_order":0,"other_tags":"\"oneway\"=>\"yes\"","source_file":"yangshanglane.shp","source_crs":"EPSG:4326","target_crs":"BD09","feature_index":50},"geometry":{"type":"LineString","coordinates":[[122.04960053738257,30.655768990684475],[122.0498862055391,30.655594995856323],[122.05013125710592,30.655416970229172],[122.05035204155563,30.65523431951705],[122.05035828386539,30.655206703671393],[122.05036553324847,30.65517428513333],[122.05033873893855,30.65504739600684],[122.05027695032713,30.654888249226122],[122.05016129222119,30.654846898414725],[122.04993521485406,30.65487947753434],[122.04925157308492,30.655053023364562],[122.04908735675353,30.65518460456581],[122.04860546298801,30.65559088794392],[122.048390060946,30.6557915524612],[122.0480724387372,30.656031400135568],[122.04782482571302,30.656158095569143],[122.04735383306439,30.656501355463035],[122.0469770940053,30.656773058021297],[122.04689372023019,30.656837506975876],[122.04685628382346,30.65688364069206]]}},{"type":"Feature","properties":{"osm_id":"812688986","name":"","highway":"service","waterway":"","aerialway":"","barrier":"","man_made":"","z_order":0,"other_tags":"","source_file":"yangshanglane.shp","source_crs":"EPSG:4326","target_crs":"BD09","feature_index":51},"geometry":{"type":"LineString","coordinates":[[122.02225127558371,30.663479310236713],[122.02192285999793,30.66328513462107],[122.02183734599892,30.663227285311383],[122.02177219043038,30.663180574249182],[122.02170265771836,30.6631167639317],[122.02163045929692,30.6630205875845],[122.02157697186367,30.662880903549247],[122.02097888268989,30.66094562494962],[122.02092282695219,30.660773568066222],[122.0212897180433,30.660689205522242],[122.02097994928037,30.65974547410205],[122.04421514875901,30.654340286398277],[122.04430367916812,30.654546156337947]]}},{"type":"Feature","properties":{"osm_id":"812688987","name":"","highway":"service","waterway":"","aerialway":"","barrier":"","man_made":"","z_order":0,"other_tags":"\"oneway\"=>\"yes\"","source_file":"yangshanglane.shp","source_crs":"EPSG:4326","target_crs":"BD09","feature_index":52},"geometry":{"type":"LineString","coordinates":[[122.02326492369806,30.663198532763804],[122.02234506895776,30.660476538503318],[122.0212897180433,30.660689205522242]]}},{"type":"Feature","properties":{"osm_id":"812688988","name":"","highway":"service","waterway":"","aerialway":"","barrier":"","man_made":"","z_order":0,"other_tags":"","source_file":"yangshanglane.shp","source_crs":"EPSG:4326","target_crs":"BD09","feature_index":53},"geometry":{"type":"LineString","coordinates":[[122.0412858978031,30.66015402506616],[122.04131455714301,30.66024646673317],[122.04147183718973,30.66075097723917]]}},{"type":"Feature","properties":{"osm_id":"812688989","name":"","highway":"service","waterway":"","aerialway":"","barrier":"","man_made":"","z_order":0,"other_tags":"","source_file":"yangshanglane.shp","source_crs":"EPSG:4326","target_crs":"BD09","feature_index":54},"geometry":{"type":"LineString","coordinates":[[122.03837693111939,30.66085588618749],[122.03840517873759,30.66094020280784],[122.03864601899613,30.661676474482928]]}},{"type":"Feature","properties":{"osm_id":"812688990","name":"","highway":"service","waterway":"","aerialway":"","barrier":"","man_made":"","z_order":0,"other_tags":"\"oneway\"=>\"yes\"","source_file":"yangshanglane.shp","source_crs":"EPSG:4326","target_crs":"BD09","feature_index":55},"geometry":{"type":"LineString","coordinates":[[122.03570414085569,30.662226022007676],[122.03599934579337,30.66221132133294],[122.03628917601266,30.662184973922905],[122.03662456600817,30.662133702587962],[122.03750771415415,30.66195257675592],[122.03846612622681,30.661720812146086],[122.03864601899613,30.661676474482928],[122.03907301264185,30.661560769490887],[122.03984382699844,30.661321273147472],[122.0406765744552,30.661049311394894],[122.04147183718973,30.66075097723917],[122.04174324132448,30.6606398695265],[122.04221356670949,30.660430943665226],[122.04234503278253,30.66037371931352],[122.043116669585,30.660037406504138],[122.04380535901079,30.659713863008147],[122.04394208676592,30.65964955117418],[122.04472458166855,30.65923321062456],[122.04516567892112,30.658981136125433],[122.04542119602625,30.658829742872296],[122.04569561733129,30.658625232635],[122.04591620934794,30.658436686252983],[122.04627681426818,30.658066132792108],[122.04633872044374,30.6580063826088],[122.04633620477823,30.657897952177542],[122.04631750768006,30.657717763503598]]}},{"type":"Feature","properties":{"osm_id":"812688991","name":"","highway":"service","waterway":"","aerialway":"","barrier":"","man_made":"","z_order":0,"other_tags":"\"oneway\"=>\"yes\"","source_file":"yangshanglane.shp","source_crs":"EPSG:4326","target_crs":"BD09","feature_index":56},"geometry":{"type":"LineString","coordinates":[[122.02326492369806,30.663198532763804],[122.02331461339791,30.663347909958063],[122.02333484045211,30.66339504514672],[122.02335917705301,30.663425462713384],[122.02338741751672,30.663445659676285],[122.02341886123091,30.663457421622116],[122.02345490571967,30.663461277832695],[122.02348905806888,30.663459692735234],[122.02360651471167,30.66343284331867],[122.02364147658677,30.663420170701777],[122.02367394770518,30.663401444301247],[122.02369992649018,30.663384482488453],[122.02387882852659,30.663217170356262],[122.02390691019136,30.663194348849867],[122.0239388829765,30.66317530866243],[122.02396345985666,30.663163116113566],[122.02399033159988,30.663153071401194],[122.02403587953219,30.663140712994803],[122.02557637849847,30.66277774839878],[122.02586527275984,30.662723306632234],[122.02596277227816,30.66270414058852],[122.02607964132315,30.66269405537157],[122.02617722130013,30.662698485690523],[122.02630164906913,30.6627266450771],[122.02689246050133,30.662962835316755],[122.0270492450596,30.663010676397388],[122.02720374984443,30.663042356645516],[122.02735727210771,30.663059301593115],[122.02747744362173,30.663063195476298],[122.0275880365198,30.663056396982753],[122.02769094746468,30.663040044011552],[122.02779136852183,30.663016836438686],[122.03223927268819,30.661998142840382],[122.03482642446318,30.661390586331915],[122.03495646887822,30.661359863045703],[122.03507449992624,30.661345266026174],[122.03515230597196,30.661353220014387],[122.0352221012622,30.661372663739154],[122.03528107880622,30.661410362553763],[122.03532125117724,30.66145010800417],[122.0353614071137,30.661508355861326],[122.03542569327989,30.66165004052758],[122.0356049866248,30.662146210398667],[122.03564254566768,30.6622021137894],[122.03570414085569,30.662226022007676]]}},{"type":"Feature","properties":{"osm_id":"812688992","name":"","highway":"service","waterway":"","aerialway":"","barrier":"","man_made":"","z_order":0,"other_tags":"","source_file":"yangshanglane.shp","source_crs":"EPSG:4326","target_crs":"BD09","feature_index":57},"geometry":{"type":"LineString","coordinates":[[122.02488875831818,30.663104427834064],[122.02516129447007,30.663005938529512],[122.02524631478855,30.66297395043637],[122.02532534649421,30.662938637523343],[122.02538430522792,30.662902217380047],[122.02557637849847,30.66277774839878]]}},{"type":"Feature","properties":{"osm_id":"812688994","name":"","highway":"service","waterway":"","aerialway":"","barrier":"","man_made":"","z_order":0,"other_tags":"\"oneway\"=>\"yes\"","source_file":"yangshanglane.shp","source_crs":"EPSG:4326","target_crs":"BD09","feature_index":58},"geometry":{"type":"LineString","coordinates":[[122.04960053738257,30.655768990684475],[122.04973496968657,30.655646352917095],[122.04980014411446,30.655567374995503],[122.04981433066914,30.655515649495804],[122.04981697319293,30.655471836831712],[122.04981099029067,30.655424231595216],[122.04979607991265,30.655374234234376],[122.04977674812335,30.655333242822127],[122.04975720539409,30.65530565432028],[122.04972071063213,30.655273879326003],[122.04967649061682,30.655242609481625],[122.04962193189937,30.6552186473393],[122.04956506405496,30.655197684505108],[122.04950989593924,30.655185119221798],[122.04945522410358,30.65518035235908],[122.04939643380322,30.655183386497715],[122.04935368962767,30.655193811023924],[122.04928605698622,30.655217247643904],[122.04922593828917,30.65525468014463],[122.04914463924233,30.655311119574566],[122.04884762600801,30.655558615682224],[122.04853524274091,30.655858528197083],[122.04824652166067,30.6560647342475],[122.04766853292979,30.656471787137516],[122.04713575822176,30.656849470574922],[122.04702196010265,30.656962886917096],[122.04691494567369,30.657121413607825],[122.04678901078209,30.65736830785192],[122.04669143596944,30.657513326735057],[122.04661214091568,30.657621070016667],[122.04633620477823,30.657897952177542],[122.04615048311524,30.658084291979375],[122.045526222495,30.658617763465994],[122.04526476465405,30.658794767999936],[122.04504746393035,30.658920665555026],[122.04436976180911,30.659305449257705],[122.04378350896866,30.659607226067582],[122.04352542129443,30.65970736469422],[122.04319753163264,30.65979322823059],[122.04131455714301,30.66024646673317],[122.03840517873759,30.66094020280784],[122.03661445265524,30.661370914397573],[122.03650518264655,30.66139438079465],[122.03640933186846,30.661405300040435],[122.03629448268322,30.661408072176673],[122.03618654407957,30.661404818221065],[122.03608371643932,30.66139391703675],[122.03598759608697,30.661379691365166],[122.03586598033294,30.661353427082048],[122.03544455505155,30.661254104148274],[122.0353294503987,30.66123096959342],[122.03524074353088,30.661218680349013],[122.03511982465518,30.661215151210406],[122.03499819808424,30.661223102376404],[122.03489106883308,30.661239141566707],[122.03463729152358,30.661295446116767],[122.03220389295593,30.6618792551701],[122.02784780746359,30.662913977656082],[122.02761629149,30.662965613134187],[122.02740020307267,30.66297710357523],[122.0272269081511,30.66295238130147],[122.02697433103897,30.66289730500085],[122.0263960026225,30.66265768472322],[122.02621636892307,30.662596335709814],[122.02607445254588,30.66257972729093],[122.02585469612413,30.662603069422627],[122.02336330993575,30.663167192077378],[122.02326492369806,30.663198532763804]]}},{"type":"Feature","properties":{"osm_id":"812689511","name":"","highway":"residential","waterway":"","aerialway":"","barrier":"","man_made":"","z_order":3,"other_tags":"\"oneway\"=>\"yes\"","source_file":"yangshanglane.shp","source_crs":"EPSG:4326","target_crs":"BD09","feature_index":59},"geometry":{"type":"LineString","coordinates":[[122.04103818031909,30.661022261506858],[122.04137192478392,30.660938356625152],[122.04166452448412,30.660861739849434]]}},{"type":"Feature","properties":{"osm_id":"812689512","name":"","highway":"residential","waterway":"","aerialway":"","barrier":"","man_made":"","z_order":3,"other_tags":"\"oneway\"=>\"yes\"","source_file":"yangshanglane.shp","source_crs":"EPSG:4326","target_crs":"BD09","feature_index":60},"geometry":{"type":"LineString","coordinates":[[122.04166452448412,30.660861739849434],[122.04189634723427,30.660673281468952]]}},{"type":"Feature","properties":{"osm_id":"822328009","name":"","highway":"residential","waterway":"","aerialway":"","barrier":"","man_made":"","z_order":3,"other_tags":"\"oneway\"=>\"yes\"","source_file":"yangshanglane.shp","source_crs":"EPSG:4326","target_crs":"BD09","feature_index":61},"geometry":{"type":"LineString","coordinates":[[122.03267173302021,30.66244572756208],[122.03270192733036,30.662552419252474]]}},{"type":"Feature","properties":{"osm_id":"845089288","name":"","highway":"","waterway":"","aerialway":"","barrier":"","man_made":"","z_order":0,"other_tags":"\"natural\"=>\"coastline\"","source_file":"yangshanglane.shp","source_crs":"EPSG:4326","target_crs":"BD09","feature_index":62},"geometry":{"type":"LineString","coordinates":[[122.05090856545036,30.653610138839415],[122.05100716714689,30.653673645522584],[122.05113366599274,30.653742580151516],[122.05119414424449,30.6537943521438],[122.05121439243766,30.653827812352223],[122.05121567114325,30.653863617942523],[122.05122777774915,30.653914301308053],[122.0512506235725,30.653963858410556],[122.05126676129498,30.653991526022875],[122.05127607367483,30.654020410308],[122.05129090257576,30.65405378207088],[122.05131105141749,30.654086040209194],[122.05132989473317,30.65411950147191],[122.05136348451366,30.654162127459237],[122.05139307616417,30.65418275727849],[122.05144555077959,30.65420342688177],[122.05148729548283,30.654212519435337],[122.05151960531832,30.65422283586097],[122.05154107077027,30.654240082233585],[122.05155188813015,30.65427006009234],[122.05155186595461,30.654300067278093],[122.0515367942919,30.654322813420393],[122.0515073732605,30.654341796808776],[122.0514562689934,30.65436723781652],[122.05142794841491,30.654391617272566],[122.05138211950079,30.65447705502153],[122.05132421398311,30.654607231243247],[122.05117169025574,30.65484395409688],[122.0507033707192,30.65533375030931],[122.05013415572971,30.655817758583012],[122.05003653725679,30.65593600654154],[122.04999335564803,30.656111396856108],[122.0499636088683,30.656298372819556],[122.04996149532406,30.656432105314558],[122.04991727577121,30.65664840212978],[122.04983926434987,30.656963252682523],[122.04975019548903,30.65730261198078],[122.04965037152527,30.657664976354276],[122.04964488280014,30.65775039937925],[122.04966097171184,30.657826503058693],[122.04970392477546,30.657930389900752],[122.04978731228,30.65803183714009],[122.04989812005908,30.6580991414194],[122.05011661497262,30.658135895393322],[122.05052183038981,30.658204011193057],[122.0507478784656,30.658242813466856],[122.05100362477371,30.658302004795544],[122.05133455241278,30.658363846103367],[122.05157281091829,30.6583697238879],[122.0518159963398,30.658379131295295],[122.0519345278538,30.658388973570823],[122.05201781321561,30.658419018819096],[122.05209639184872,30.65843777013175],[122.05215279621441,30.658446986959916],[122.05220628605834,30.658461111496116],[122.05225384118954,30.658490356671102],[122.05230230070892,30.6585189963581],[122.05235477496949,30.658548819899234],[122.05242342332713,30.65856478007548],[122.05254278055388,30.658565246309045],[122.05269155204502,30.658568686707948],[122.05285156975988,30.65857466113597],[122.05300366306358,30.658578643047658],[122.05311409661607,30.658581680195056],[122.05318808747599,30.65858486370374],[122.05323527253796,30.658588059348],[122.05326889688911,30.65859951434138],[122.05328906380919,30.65861552877107],[122.0532930631427,30.658635115209524],[122.0532742674253,30.65865940330279],[122.05325667948112,30.65868028503611],[122.05324460378449,30.658712644768315],[122.05324719247096,30.658738038770053],[122.05325931331068,30.658770292386063],[122.0532781630089,30.658800215715058],[122.0532794494516,30.65882211463417],[122.05325121601507,30.65884644388761],[122.05321486508211,30.65885360410183],[122.05316396263329,30.658853724224223],[122.05298326551753,30.6588337810594],[122.05284052614782,30.658810154809853],[122.05266285054122,30.65879234366038],[122.05253767510746,30.658783611234973],[122.05241650535346,30.658789852313635],[122.052335676288,30.658814342812697],[122.05228988044296,30.65883990701369],[122.05219558877063,30.65888053606711],[122.05203414876787,30.658919172593787],[122.0514511891609,30.659050093393624],[122.05116503507475,30.659079907110364],[122.05080536960725,30.659076279319518],[122.05035362823041,30.659060362598986],[122.05000747216798,30.65905282436356],[122.04972936591705,30.659041906356148],[122.04945508999457,30.659029107049935],[122.04917679651054,30.659040737594573],[122.04901144181652,30.659084485567146],[122.0488813942369,30.65913680747935],[122.04877078074232,30.659222621278168],[122.04860247221447,30.659450338794322],[122.04853221135788,30.659506929350083],[122.04846216222566,30.659551912474804],[122.04837606438947,30.659599183143143],[122.04829279938467,30.659620142312612],[122.04823514116262,30.659606603942056],[122.04820526485895,30.659593381403955],[122.0481769076292,30.659563555507965],[122.04816901780976,30.659525241801735],[122.04815420556042,30.659489423534225],[122.04813136086004,30.659464001230507],[122.04808965631251,30.659444364801942],[122.04802247031407,30.65943390684514],[122.04794043648172,30.659430431759915],[122.04784897421767,30.659430340689568],[122.0477792672379,30.65943986754223],[122.04758395152139,30.65951424608879],[122.04734851515737,30.659609728182353],[122.04713326642694,30.659680884147438],[122.0469210254402,30.659763800873918],[122.0466786626318,30.659792992519254],[122.04645006363619,30.6598040540223],[122.0462753657645,30.65975279346281],[122.04613829388389,30.65967170132631],[122.04602008641942,30.659574441719425],[122.04593402404119,30.659518774041015],[122.04586956140714,30.65952547888835],[122.04580498733496,30.659546082074485],[122.04573770377269,30.65957117320472],[122.04565165639778,30.659619402738308],[122.0450941008573,30.659921663128717],[122.04440692303862,30.660240221016682],[122.04332013504178,30.660726534307695],[122.04250436866089,30.6610816230531],[122.04158889163368,30.66144110285809],[122.04073813491273,30.66173737040791],[122.0398319656665,30.662037817189933],[122.03901260991528,30.662271820848318],[122.03824276784091,30.662466004885413],[122.0369808649885,30.66276522467298],[122.03571442137067,30.66301432539532],[122.03549142027033,30.66306051434317],[122.03540553328244,30.66313319340787],[122.03538397766384,30.663188318994766],[122.0353812196253,30.66325059570931],[122.0354319598409,30.663327785556305],[122.03552601968867,30.663395642285685],[122.03556887888058,30.663451517712105],[122.03560102710767,30.663516553229012],[122.03560352735566,30.663625109220963],[122.03561151185232,30.663752140952727],[122.03563557739436,30.66379626516462],[122.0356838151062,30.663877711993383],[122.03574276379064,30.6639510940771],[122.03575000854816,30.66401290126058],[122.03579427800885,30.66405988455807],[122.03581676511426,30.664081079617983],[122.03582244513606,30.664104457924736],[122.03580852036367,30.664126582861908],[122.03576188037648,30.664154685440852],[122.03569063118589,30.664185666560368],[122.03560004620319,30.66425069737333],[122.0355609867362,30.664303796372142],[122.035517530139,30.664352935286377],[122.03545257539602,30.664394986860028],[122.03539493173258,30.664427729883503],[122.0353224890088,30.664456771894784],[122.0352392464175,30.664484464270345],[122.03518150616591,30.664515995103297],[122.03516008644017,30.66453301017528],[122.035135062209,30.6645542770972],[122.03511044057848,30.664572948371042],[122.03506072562446,30.66458017651744],[122.03498300825271,30.664586020824146],[122.03491858392097,30.664602444262236],[122.03489705013527,30.664635656416404],[122.03488300936436,30.66467747283408],[122.03487825979174,30.664730018915442],[122.03486001466939,30.664775978244517],[122.0348325913787,30.664797405772752],[122.03477217023752,30.664812776042524],[122.03470375881544,30.664817630159742],[122.03460726906196,30.66479778360214],[122.03456428803622,30.6647740780652],[122.03455231320974,30.66474620452221],[122.03456704413136,30.664714103762375],[122.03460997570626,30.66468359689542],[122.03465832851187,30.66463115919342],[122.03467846980651,30.664588730080293],[122.03467448664298,30.664570270783752],[122.03465569707595,30.66455730676508],[122.03462619827445,30.664553395187912],[122.0345872946837,30.664554052514873],[122.03453098191112,30.664563666595253],[122.03446528659549,30.66455464201873],[122.03435264044067,30.66449193810805],[122.03423753122637,30.664391980454088],[122.03417487139654,30.66434857582479],[122.03408195093444,30.66426412399424],[122.03399894750673,30.664162604778078],[122.0339386128679,30.664094816251215],[122.03387886776562,30.664038935866405],[122.03384749825275,30.66400807211131],[122.03380871846319,30.663989001796217],[122.03376442541392,30.663984952711385],[122.03372039972687,30.66401641359763],[122.03368417857803,30.66404258665956],[122.0335781997256,30.664138843015987],[122.03348573393012,30.6642212884378],[122.03344797643486,30.664288340516354],[122.03332749096053,30.664398662090644],[122.03316094326958,30.6644798692657],[122.03301689740648,30.66455919739457],[122.0328975867267,30.664598480345532],[122.03277337446596,30.664643377612],[122.03266965923225,30.664688381231954],[122.0326065309559,30.664737110068366],[122.03255691448165,30.664769743375757],[122.03248371805495,30.664788802555922],[122.03243292826481,30.66479430685963],[122.03240544461464,30.664785872993093],[122.03234579185894,30.66475542666899],[122.03227133718562,30.664732945048183],[122.03221377634421,30.664711827821176],[122.0321051317767,30.664693394326424],[122.03197648794138,30.66468443293134],[122.0318209818188,30.664649619244003],[122.03145382548185,30.664560511240097],[122.03063584877576,30.664465495287057],[122.02946765607822,30.664347200778707],[122.02885988426343,30.66430883751972],[122.02865799142111,30.66427413897363],[122.02849485190323,30.664257834432625],[122.02810589450564,30.664277218248763],[122.02794615035637,30.664275026068854],[122.02781149021075,30.664266790651087],[122.02769323325998,30.664239851026824],[122.02756980158075,30.664193300731576],[122.02746099564939,30.66410481126782],[122.02728675948372,30.66390913944886],[122.02717197675557,30.663806414603304],[122.02708002396861,30.66375423361379],[122.02695213083148,30.663681148664953],[122.0268636404388,30.663667932310318],[122.02677520813789,30.663700823010757],[122.02670505909046,30.663730564930052],[122.02662245694616,30.663725553582132],[122.02652031381494,30.663681847788503],[122.02639496699136,30.663564464809593],[122.02629023784753,30.663403670133775],[122.02623416075167,30.663341951592102],[122.02617506559143,30.66330397708499],[122.02611136711921,30.66327591194162],[122.02603675942095,30.663272434015585],[122.02556410998916,30.663410342532767],[122.02514392389489,30.663539204988343],[122.02432905131197,30.663814420317227],[122.02375177741608,30.664004900886365],[122.02357936641751,30.664065416203872],[122.02349176556692,30.664093789977954],[122.0233802094202,30.664111956202134],[122.0232589834842,30.664113810947143],[122.02312260443396,30.664090335479422],[122.02292283908734,30.664046809559924],[122.02277817390032,30.664025342806823],[122.02267790724801,30.664043020296088],[122.02259671447426,30.664058699390583],[122.02247169014495,30.664072442907777],[122.02240426991237,30.664096411947288],[122.02234302260347,30.664139715518026],[122.02232829911209,30.66418901231286],[122.0223228741381,30.66422470446549],[122.02229178874292,30.66425984874427],[122.02222915136163,30.66429521867599],[122.02214255086896,30.664330674774842],[122.02208742540053,30.664341497235156],[122.02206905149657,30.664343804254614],[122.02203819363268,30.66434954445146],[122.02201612266775,30.66435487262503],[122.02197597737478,30.66436261360386],[122.02190438258302,30.66436847868052],[122.02187949627262,30.66439515025361],[122.02186928433852,30.664424937545665],[122.02188090064786,30.664495402656755],[122.02186725845296,30.664563324737905],[122.0218297463042,30.664638735554252],[122.02177747044885,30.66469992535064],[122.02174660082288,30.66471886557584],[122.02168549341208,30.664721751049235],[122.02160073053746,30.664716823923886],[122.02155679635452,30.664720077389852],[122.02151985628909,30.664717980054185],[122.02147753383584,30.664706163992598],[122.02143192326244,30.664687274848145],[122.02138054050738,30.66464845595796],[122.02135391118034,30.664617773464894],[122.0213202846041,30.664596041420477],[122.02128076306276,30.664578982545393],[122.02126339521767,30.664574005540274],[122.02123723777247,30.664572838995475],[122.02121317485098,30.664574018159314],[122.0211837162561,30.664579781290808],[122.02106148113178,30.66461163807725],[122.02093394220772,30.66465747899155],[122.02083618054726,30.664677257989105],[122.0208194083012,30.66467639292832],[122.02080753285654,30.664670533244195],[122.02077099684544,30.664664936851977]]}},{"type":"Feature","properties":{"osm_id":"1000926311","name":"","highway":"","waterway":"","aerialway":"","barrier":"","man_made":"","z_order":0,"other_tags":"\"cables\"=>\"6\",\"circuits\"=>\"2\",\"power\"=>\"line\",\"voltage\"=>\"220000\"","source_file":"yangshanglane.shp","source_crs":"EPSG:4326","target_crs":"BD09","feature_index":63},"geometry":{"type":"LineString","coordinates":[[122.0464934499939,30.65937256884547],[122.04911979105836,30.65824918433231],[122.0677544907941,30.65045051626285],[122.06968987357378,30.649704506068375],[122.06856016423231,30.64790362110922]]}},{"type":"Feature","properties":{"osm_id":"1193094420","name":"东海大桥","highway":"","waterway":"","aerialway":"","barrier":"","man_made":"bridge","z_order":10,"other_tags":"\"layer\"=>\"1\",\"name:zh\"=>\"东海大桥\",\"name:zh-Hans\"=>\"东海大桥\",\"name:zh-Hant\"=>\"東海大橋\",\"wikidata\"=>\"Q338136\",\"wikipedia\"=>\"zh:东海大桥\"","source_file":"yangshanglane.shp","source_crs":"EPSG:4326","target_crs":"BD09","feature_index":64},"geometry":{"type":"LineString","coordinates":[[121.90064050060143,30.87816016394283],[121.90094445638572,30.878382235695064],[121.9034091394944,30.876233624668952],[121.91212142898739,30.868739886388198],[121.91220167665215,30.86883770013083],[121.91359616841933,30.867477452778473],[121.91816766697704,30.863492007496248],[121.92093447818428,30.861124425951925],[121.92176436184543,30.860368566947216],[121.92257826919655,30.859524324775425],[121.92347800099911,30.858564662760124],[121.92464037942082,30.857166927377474],[121.92543314256619,30.856039284965526],[121.92615099081931,30.854957004687066],[121.92700817390512,30.853514750408632],[121.93551596571929,30.838938180074898],[121.94508202826647,30.822538539741558],[121.94899706753617,30.815997331194986],[121.95065932094502,30.813056907211063],[121.9541158393257,30.807135158712462],[121.95675309742622,30.802581695917574],[121.9604839907013,30.796000477490956],[121.96434545083207,30.789374383965352],[121.96737381732089,30.784056519639492],[121.97129810126948,30.777497417305927],[121.97921173719055,30.763978436829355],[121.98166930380674,30.75962570467251],[121.98248800068717,30.757936106954464],[121.98331712368883,30.755998107861206],[121.98381223201687,30.75461882178729],[121.9844094395508,30.752843088518603],[121.98476972167201,30.751671684550153],[121.98513518239241,30.750122079216343],[121.98533922990097,30.74912596471276],[121.98562915491985,30.747659339126162],[121.98576851767695,30.7465801200073],[121.98595051143867,30.74494723798027],[121.98608907114694,30.742917497231407],[121.98610918043778,30.741108912106885],[121.98560158850671,30.71820945357752],[121.98566454174676,30.716575779501326],[121.98579186283015,30.714739109054168],[121.98601641140078,30.713179584477615],[121.98635927822636,30.71138967265126],[121.98669177333679,30.710079800933617],[121.98703507901917,30.708825531993785],[121.98748598754415,30.707543977759883],[121.98807660105803,30.705986373087505],[121.98863511327035,30.704696657583483],[121.98930114926486,30.703361746706836],[121.9901497554394,30.701816044926883],[121.9906440087719,30.700997884289784],[121.9913315100408,30.699950603865567],[122.01397235748513,30.67220015732155],[122.01506593236805,30.670969020655193],[122.01623440536,30.669813563732244],[122.0175742529254,30.668698846875124],[122.01908550044408,30.667624617297847],[122.02045733655704,30.666768666211663],[122.02233289338152,30.665793766253113],[122.02437996658077,30.664904409726073],[122.02635216108,30.664270279352046],[122.02783146118423,30.663846474840504],[122.03023318066994,30.66340994926804],[122.03010484952588,30.663103054437435],[122.02799260050246,30.663526333250914],[122.02585930290232,30.66410359284966],[122.02394080211724,30.664766100765085],[122.0221830926874,30.665504402287624],[122.02043619945968,30.66641742614175],[122.01842137828946,30.667665328508097],[122.01665292332122,30.669019806106746],[122.01555946916137,30.670010876877043],[122.01479836977647,30.670760026101977],[122.01358674694153,30.672136223008724],[122.00647673945869,30.680773570688064],[121.9997283674272,30.68891575349016],[121.99446782056044,30.695354816419847],[121.99226595533412,30.698084357119534],[121.99092307903092,30.699956785001703],[121.98983794772745,30.701647996952868],[121.98903210891781,30.70307411866656],[121.98815125284884,30.704897532840928],[121.98757120272946,30.706298214190014],[121.98718468454948,30.707395210300213],[121.98674437999871,30.708556955002514],[121.98634733244977,30.710005012621988],[121.98597190189042,30.711462607134973],[121.98572549832991,30.71268053944131],[121.98554368000052,30.713954096031337],[121.98538346725059,30.715329206224816],[121.98533128617284,30.716953694567785],[121.9852786355038,30.718061323542493],[121.98527952886501,30.71892896192232],[121.98577562482681,30.741163647359016],[121.98576611077742,30.742787635024275],[121.98571292849643,30.74376568804739],[121.9855740219092,30.745195676901403],[121.98540272206742,30.746819335539616],[121.98518809911563,30.748110831994975],[121.98486598819238,30.74978036911303],[121.98439299560313,30.751735952946934],[121.98385521082002,30.753590160797128],[121.98326326540744,30.75524174347627],[121.98256339582544,30.757013542512293],[121.9820033351894,30.758213639598935],[121.98116304165859,30.759894478886277],[121.98048401538469,30.76118784375542],[121.97976182487011,30.76246340262556],[121.97887765600757,30.763915499258527],[121.96702848515795,30.78389538005655],[121.96540614309325,30.786767673744407],[121.96462735057494,30.78810703486646],[121.96341586973521,30.79023703910122],[121.96220427787374,30.79235831943218],[121.96112275917282,30.79414605683973],[121.95942455161139,30.7971153447896],[121.9580619228352,30.799516922356887],[121.95638594356073,30.802449644418406],[121.9553914523909,30.80419078344183],[121.95260340850795,30.80904164133502],[121.95001163570916,30.81350087397011],[121.94699024235031,30.818656363452064],[121.94481237325402,30.822450132366477],[121.94140859802809,30.828303791243858],[121.9385785903479,30.832945458332976],[121.93676170302848,30.836134361700857],[121.9350426405071,30.839116984930374],[121.93394728063919,30.841005329321213],[121.93226209506311,30.843983464488367],[121.92980545444063,30.848159808050273],[121.9260219201545,30.854615806894213],[121.9250683078429,30.855997111550916],[121.92428628362067,30.857073866404427],[121.92302231867593,30.85859982252728],[121.92210128189073,30.85961894286406],[121.9211696868271,30.860526716891137],[121.91505504173568,30.86574317219488],[121.91360133654779,30.86708124163889],[121.90263019993492,30.87650548409771],[121.9018086867327,30.877190941439043],[121.90064050060143,30.87816016394283]]}},{"type":"Feature","properties":{"osm_id":"1193094941","name":"颗珠山大桥","highway":"","waterway":"","aerialway":"","barrier":"","man_made":"bridge","z_order":10,"other_tags":"\"layer\"=>\"1\",\"name:zh\"=>\"颗珠山大桥\",\"name:zh-Hans\"=>\"颗珠山大桥\",\"name:zh-Hant\"=>\"顆珠山大橋\"","source_file":"yangshanglane.shp","source_crs":"EPSG:4326","target_crs":"BD09","feature_index":65},"geometry":{"type":"LineString","coordinates":[[122.04751211660486,30.6577920769179],[122.04772711577377,30.658037005825445],[122.05125954952483,30.655569913340575],[122.06110953773543,30.648317785023295],[122.0643783556087,30.645899701576298],[122.0659003281535,30.644743936596576],[122.0656210885613,30.644465138138198],[122.06087228667677,30.648103464749674],[122.04878796993926,30.656911419997098],[122.04751211660486,30.6577920769179]]}},{"type":"Feature","properties":{"osm_id":"1225236908","name":"东海大桥","highway":"motorway","waterway":"","aerialway":"","barrier":"","man_made":"","z_order":9,"other_tags":"\"lanes\"=>\"3\",\"name:en\"=>\"Donghai Bridge\",\"name:zh\"=>\"东海大桥\",\"name:zh-Hans\"=>\"东海大桥\",\"name:zh-Hant\"=>\"東海大橋\",\"name:zh-Latn-pinyin\"=>\"Dōnghǎi Dàqiáo\",\"noref\"=>\"yes\",\"oneway\"=>\"yes\",\"wikidata\"=>\"Q338136\",\"wikipedia\"=>\"zh:东海大","source_file":"yangshanglane.shp","source_crs":"EPSG:4326","target_crs":"BD09","feature_index":66},"geometry":{"type":"LineString","coordinates":[[122.03011494177316,30.66321245397443],[122.03052163015477,30.663158260147316],[122.0314090302047,30.66306834950782],[122.03301201526679,30.662921868979677],[122.03426310734226,30.662796701518904],[122.03507666615471,30.662701689572017],[122.03580493967635,30.66258760693247],[122.03618042035481,30.662528583919105]]}},{"type":"Feature","properties":{"osm_id":"1225236909","name":"","highway":"service","waterway":"","aerialway":"","barrier":"","man_made":"","z_order":0,"other_tags":"\"oneway\"=>\"yes\"","source_file":"yangshanglane.shp","source_crs":"EPSG:4326","target_crs":"BD09","feature_index":67},"geometry":{"type":"LineString","coordinates":[[122.0326529869138,30.662392324726614],[122.03267173302021,30.66244572756208]]}},{"type":"Feature","properties":{"osm_id":"1225236910","name":"","highway":"service","waterway":"","aerialway":"","barrier":"","man_made":"","z_order":0,"other_tags":"\"oneway\"=>\"yes\"","source_file":"yangshanglane.shp","source_crs":"EPSG:4326","target_crs":"BD09","feature_index":68},"geometry":{"type":"LineString","coordinates":[[122.03260074312095,30.66245582560044],[122.03258459510657,30.66240396258132]]}},{"type":"Feature","properties":{"osm_id":"1225236913","name":"","highway":"service","waterway":"","aerialway":"","barrier":"","man_made":"","z_order":0,"other_tags":"\"oneway\"=>\"yes\"","source_file":"yangshanglane.shp","source_crs":"EPSG:4326","target_crs":"BD09","feature_index":69},"geometry":{"type":"LineString","coordinates":[[122.03258459510657,30.66240396258132],[122.03254184851566,30.662249461560773]]}},{"type":"Feature","properties":{"osm_id":"1225236914","name":"东海大桥","highway":"motorway","waterway":"","aerialway":"","barrier":"","man_made":"","z_order":9,"other_tags":"\"lanes\"=>\"3\",\"name:en\"=>\"Donghai Bridge\",\"name:zh\"=>\"东海大桥\",\"name:zh-Hans\"=>\"东海大桥\",\"name:zh-Hant\"=>\"東海大橋\",\"name:zh-Latn-pinyin\"=>\"Dōnghǎi Dàqiáo\",\"noref\"=>\"yes\",\"oneway\"=>\"yes\",\"wikidata\"=>\"Q338136\",\"wikipedia\"=>\"zh:东海大","source_file":"yangshanglane.shp","source_crs":"EPSG:4326","target_crs":"BD09","feature_index":70},"geometry":{"type":"LineString","coordinates":[[122.03509965268663,30.662829428446518],[122.03427669345592,30.662920821759265],[122.03301189696775,30.663050395052412],[122.03136523271318,30.66319675497756],[122.03081566419242,30.66325838423907],[122.03055428985262,30.66328864724488],[122.03016899180773,30.663335620170383]]}},{"type":"Feature","properties":{"osm_id":"1450316226","name":"","highway":"","waterway":"","aerialway":"","barrier":"","man_made":"","z_order":0,"other_tags":"\"power\"=>\"substation\",\"voltage\"=>\"220000\"","source_file":"yangshanglane.shp","source_crs":"EPSG:4326","target_crs":"BD09","feature_index":71},"geometry":{"type":"LineString","coordinates":[[122.04643084190286,30.65965817506383],[122.04626972053602,30.659328287755457],[122.04674049134023,30.659139090013635],[122.04693572425657,30.659465366681957],[122.04643084190286,30.65965817506383]]}}]}